{
  "type": "FeatureCollection",
  "name": "Ấp 1",
  "crs": {
    "type": "name",
    "properties": {
      "name": "urn:ogc:def:crs:OGC:1.3:CRS84"
    }
  },
  "features": [
    {
      "type": "Feature",
      "properties": {
        "Layer": "AP 1",
        "PaperSpace": null,
        "SubClasses": "AcDbEntity:AcDbHatch",
        "Linetype": null,
        "EntityHandle": "2BF8A2",
        "Text": "ANSI31",
        "sap_nhap_tu": [
          "Ấp Ba Tục"
        ],
        "so_ho_sau_sap_nhap": 993,
        "so_dan_sau_sap_nhap": 4045,
        "dien_tich_sau_sap_nhap_ha": 137.95,
        "ma": "3005001",
        "ten": "Ấp Ba Tục",
        "loai": "Ấp",
        "dien_tich_km2": "1.38",
        "dien_tich_ha": "137.95",
        "dan_so": "4045",
        "so_ho": "993",
        "mat_do_km2": "2931.16",
        "audio": "audio/Ba Tuc.mp3"
      },
      "geometry": {
        "type": "Polygon",
        "coordinates": [
          [
            [
              106.06447731424397,
              9.874892513875915
            ],
            [
              106.06417370572396,
              9.875217613126715
            ],
            [
              106.06388399971476,
              9.875509614970648
            ],
            [
              106.06378272783213,
              9.87564026833796
            ],
            [
              106.0637731499438,
              9.875630531963267
            ],
            [
              106.06369005453155,
              9.87572444969949
            ],
            [
              106.06348453413874,
              9.875947432020984
            ],
            [
              106.06309658977332,
              9.876378267408978
            ],
            [
              106.06305195583148,
              9.876446885809036
            ],
            [
              106.06293818525756,
              9.876582445660885
            ],
            [
              106.06280881124846,
              9.876724183814106
            ],
            [
              106.06278723595061,
              9.876805721508306
            ],
            [
              106.06252562590271,
              9.876597420596902
            ],
            [
              106.06242181414542,
              9.876514867969645
            ],
            [
              106.06225337943471,
              9.876696925093245
            ],
            [
              106.06176601320229,
              9.877220519279042
            ],
            [
              106.06170093191443,
              9.877326675865257
            ],
            [
              106.06167764925279,
              9.877326714698121
            ],
            [
              106.06153820468356,
              9.877485517486484
            ],
            [
              106.06151408045898,
              9.877502709482519
            ],
            [
              106.0614986023022,
              9.877623412508047
            ],
            [
              106.0613929990844,
              9.878468112088859
            ],
            [
              106.06135484901215,
              9.878779701379463
            ],
            [
              106.06131584020895,
              9.879101111189703
            ],
            [
              106.06129584297457,
              9.879250799817981
            ],
            [
              106.06126663482019,
              9.879442483591037
            ],
            [
              106.06122884628897,
              9.879537157079609
            ],
            [
              106.06122337031807,
              9.879577129739506
            ],
            [
              106.06123059345126,
              9.879707216174708
            ],
            [
              106.06124181988164,
              9.879869863500735
            ],
            [
              106.06124713056391,
              9.87993677095889
            ],
            [
              106.06126055812277,
              9.880063935676517
            ],
            [
              106.06127533740425,
              9.880176148885113
            ],
            [
              106.06116549718966,
              9.88061989462378
            ],
            [
              106.0611054341953,
              9.88084425162204
            ],
            [
              106.06100080650596,
              9.881297089822208
            ],
            [
              106.06097011069777,
              9.881477347560255
            ],
            [
              106.0609223503115,
              9.881708636958773
            ],
            [
              106.06080446291632,
              9.882359642159937
            ],
            [
              106.06079079533423,
              9.882483642283765
            ],
            [
              106.06055095716474,
              9.882727864518536
            ],
            [
              106.06044892790743,
              9.882615928581856
            ],
            [
              106.06033714115144,
              9.88250978129086
            ],
            [
              106.06032437734257,
              9.882497586048208
            ],
            [
              106.06026442535203,
              9.882440304610972
            ],
            [
              106.06026883637554,
              9.882426480739142
            ],
            [
              106.05993727310165,
              9.882225716154908
            ],
            [
              106.05982414662823,
              9.882145588463427
            ],
            [
              106.05973058353167,
              9.882079261732159
            ],
            [
              106.05965062237173,
              9.882017008168882
            ],
            [
              106.05947689942066,
              9.881900263462425
            ],
            [
              106.05939208669699,
              9.881842900318977
            ],
            [
              106.05930170872298,
              9.881778204681087
            ],
            [
              106.05909604697005,
              9.881619135199612
            ],
            [
              106.05888195638755,
              9.88147756789284
            ],
            [
              106.05888076675328,
              9.881476781246946
            ],
            [
              106.05876618013293,
              9.881406411399436
            ],
            [
              106.05859282149584,
              9.881299864435402
            ],
            [
              106.05848538956859,
              9.881216860642414
            ],
            [
              106.0584179012406,
              9.881164784908721
            ],
            [
              106.0582884990892,
              9.881084231578157
            ],
            [
              106.05823218623816,
              9.881046431923998
            ],
            [
              106.05810924892077,
              9.880944285674225
            ],
            [
              106.05799995173324,
              9.880874295561757
            ],
            [
              106.05790468415515,
              9.880813305605596
            ],
            [
              106.05766247133894,
              9.880644485683755
            ],
            [
              106.05742785531001,
              9.880488730935516
            ],
            [
              106.05725696861887,
              9.880369896849507
            ],
            [
              106.05716168256582,
              9.88030318340919
            ],
            [
              106.05706674577223,
              9.880238096836903
            ],
            [
              106.05693513815383,
              9.880146949922057
            ],
            [
              106.05679372067814,
              9.880051000039867
            ],
            [
              106.05663764116571,
              9.879943980377758
            ],
            [
              106.05636797169906,
              9.879762148870668
            ],
            [
              106.0560940181847,
              9.8795701253591
            ],
            [
              106.05587876467843,
              9.879420427562572
            ],
            [
              106.0556101309798,
              9.879246776274044
            ],
            [
              106.05541080555112,
              9.87911252193005
            ],
            [
              106.05535572831684,
              9.879060822882314
            ],
            [
              106.05526145558103,
              9.878999830477175
            ],
            [
              106.05497678519458,
              9.878815997198219
            ],
            [
              106.05476696206765,
              9.878679698274615
            ],
            [
              106.05439835141664,
              9.8784136705515
            ],
            [
              106.05407248352007,
              9.878156875801803
            ],
            [
              106.05402352498542,
              9.878099840982287
            ],
            [
              106.0538094154313,
              9.877929742165113
            ],
            [
              106.05374229755739,
              9.877874816716716
            ],
            [
              106.05351769070644,
              9.877692112974247
            ],
            [
              106.05339038443364,
              9.877560216325497
            ],
            [
              106.05317227267882,
              9.877406434569647
            ],
            [
              106.05285634958068,
              9.877119468665583
            ],
            [
              106.05276949796949,
              9.877051899163831
            ],
            [
              106.0526630727545,
              9.876991314700843
            ],
            [
              106.05242306587898,
              9.876798906703531
            ],
            [
              106.05227716217703,
              9.876639219307831
            ],
            [
              106.0521976643491,
              9.876579820176548
            ],
            [
              106.05199898177032,
              9.876402796104244
            ],
            [
              106.05192923928568,
              9.876359257855698
            ],
            [
              106.05175191700283,
              9.876213138761734
            ],
            [
              106.05147009103845,
              9.875999144065856
            ],
            [
              106.05111379746181,
              9.875750976406904
            ],
            [
              106.05086394849879,
              9.875525889112616
            ],
            [
              106.05082912197237,
              9.87549471137785
            ],
            [
              106.0508086325005,
              9.875379181125144
            ],
            [
              106.05083053004603,
              9.8752563973632
            ],
            [
              106.05084263174332,
              9.875191974680124
            ],
            [
              106.05083269323357,
              9.875142615080106
            ],
            [
              106.05078501028102,
              9.875095387712348
            ],
            [
              106.05064800227636,
              9.875005919628528
            ],
            [
              106.05047133300953,
              9.874845965155293
            ],
            [
              106.05026217064288,
              9.874698667568131
            ],
            [
              106.05016273218136,
              9.874627871970436
            ],
            [
              106.05008324907035,
              9.874571329390875
            ],
            [
              106.0499535974349,
              9.874469588656494
            ],
            [
              106.04980929025312,
              9.874376886205427
            ],
            [
              106.04970030990803,
              9.874292209182235
            ],
            [
              106.04965243369148,
              9.87424508796633
            ],
            [
              106.04956505593881,
              9.874106176401087
            ],
            [
              106.04950777916653,
              9.873963597147808
            ],
            [
              106.04947755071073,
              9.873973402635217
            ],
            [
              106.04944304484356,
              9.873911547177569
            ],
            [
              106.04949265524347,
              9.87387009624778
            ],
            [
              106.05009701457975,
              9.873448226124621
            ],
            [
              106.05060343757448,
              9.873130402374874
            ],
            [
              106.05133656078611,
              9.872777306658413
            ],
            [
              106.05221511625277,
              9.872481927364491
            ],
            [
              106.05222419902643,
              9.872448874310264
            ],
            [
              106.05254937076595,
              9.87233965799883
            ],
            [
              106.05296377662569,
              9.872296014209862
            ],
            [
              106.05336386719877,
              9.872338321279159
            ],
            [
              106.05383155868105,
              9.872456897200596
            ],
            [
              106.05502469386555,
              9.873157761540075
            ],
            [
              106.05544443988076,
              9.873424401008203
            ],
            [
              106.05569515098931,
              9.873481272808286
            ],
            [
              106.05591669668254,
              9.87339020565743
            ],
            [
              106.05620185467012,
              9.87311699654254
            ],
            [
              106.05649515535687,
              9.872705967907333
            ],
            [
              106.0567208700629,
              9.872228217928246
            ],
            [
              106.05685548352146,
              9.871758476726015
            ],
            [
              106.0571917402761,
              9.871099140440693
            ],
            [
              106.05740901555171,
              9.870756850624609
            ],
            [
              106.0577216469092,
              9.870379205479065
            ],
            [
              106.05809702718255,
              9.87005874134417
            ],
            [
              106.05842935326389,
              9.869929299032599
            ],
            [
              106.05876297981641,
              9.869971535568224
            ],
            [
              106.05916796807857,
              9.87006156546456
            ],
            [
              106.05957278712502,
              9.870051346033748
            ],
            [
              106.06010743333486,
              9.869864280832427
            ],
            [
              106.06090685018187,
              9.869500144845041
            ],
            [
              106.06126538761666,
              9.869291999277515
            ],
            [
              106.06146255671987,
              9.869038661106144
            ],
            [
              106.06170775810749,
              9.868689767480477
            ],
            [
              106.06205439387033,
              9.868474370080438
            ],
            [
              106.06247355562273,
              9.86839729054977
            ],
            [
              106.06327844265678,
              9.868419815240475
            ],
            [
              106.06381950790566,
              9.868341961121585
            ],
            [
              106.06445519417129,
              9.868059244987077
            ],
            [
              106.06467035019683,
              9.868130286953647
            ],
            [
              106.0646728308959,
              9.868151293610875
            ],
            [
              106.06500787530753,
              9.86830935664978
            ],
            [
              106.06499530316272,
              9.86833774867704
            ],
            [
              106.06502782408867,
              9.86865917962394
            ],
            [
              106.06500238148476,
              9.868715496715641
            ],
            [
              106.06498793422972,
              9.86880357632879
            ],
            [
              106.06499005694837,
              9.868963038115346
            ],
            [
              106.06499976864954,
              9.869006629101355
            ],
            [
              106.06502855395416,
              9.869135440632116
            ],
            [
              106.06514352289382,
              9.869362370923254
            ],
            [
              106.06548829152796,
              9.869811988091564
            ],
            [
              106.0659233364454,
              9.870513015495133
            ],
            [
              106.06613202724132,
              9.870878457763743
            ],
            [
              106.06620041814386,
              9.871160555831274
            ],
            [
              106.06622216979547,
              9.871446764767118
            ],
            [
              106.06617206999792,
              9.872072377466594
            ],
            [
              106.06614839420386,
              9.872180879320554
            ],
            [
              106.06613011915898,
              9.872264480794602
            ],
            [
              106.06607094263144,
              9.872535364695922
            ],
            [
              106.06578774694769,
              9.873558820342788
            ],
            [
              106.0656337662121,
              9.873552635428798
            ],
            [
              106.06562513440535,
              9.873585676107478
            ],
            [
              106.06543567447214,
              9.87358480474746
            ],
            [
              106.06484492198022,
              9.874488211848231
            ],
            [
              106.06447731424397,
              9.874892513875915
            ]
          ]
        ]
      }
    }
  ]
}