{
  "type": "FeatureCollection",
  "name": "Ấp Rạch Đùi",
  "crs": {
    "type": "name",
    "properties": {
      "name": "urn:ogc:def:crs:OGC:1.3:CRS84"
    }
  },
  "features": [
    {
      "type": "Feature",
      "properties": {
        "Layer": "13- RACH DU",
        "PaperSpace": null,
        "SubClasses": "AcDbEntity:AcDbHatch",
        "Linetype": "Continuou",
        "EntityHandle": "3E5",
        "Text": "ANSI31",
        "ten": "Ấp Rạch Đùi",
        "ma": "3005014",
        "loai": "Ấp",
        "dien_tich_ha": "428.892",
        "dan_so": "3054",
        "so_ho": "732",
        "sap_nhap_tu": [
          "Ấp Rạch Đùi",
          "ấp Xèo Cạn"
        ],
        "audio": "audio/Ap Rach Dui.mp3",
        "dien_tich_km2": "4.29",
        "mat_do_km2": "711.89"
      },
      "geometry": {
        "type": "MultiPolygon",
        "coordinates": [
          [
            [
              [
                106.10203277446591,
                9.771536696289425
              ],
              [
                106.10042060251489,
                9.772567312383114
              ],
              [
                106.09952841143658,
                9.773286364048635
              ],
              [
                106.09855944926224,
                9.774575910957154
              ],
              [
                106.09696375268507,
                9.776968525327975
              ],
              [
                106.09666068898782,
                9.777426364362364
              ],
              [
                106.09551197619012,
                9.779535709966355
              ],
              [
                106.09474342251008,
                9.780855945047684
              ],
              [
                106.09369484005369,
                9.782928252778023
              ],
              [
                106.09242244561975,
                9.785045117328124
              ],
              [
                106.0911487933686,
                9.786581596380715
              ],
              [
                106.09013863863439,
                9.787657559773782
              ],
              [
                106.08823233493705,
                9.78929783502562
              ],
              [
                106.0863721026835,
                9.790772372131357
              ],
              [
                106.08441946933709,
                9.792345146655768
              ],
              [
                106.08269700413247,
                9.793727759966417
              ],
              [
                106.08122052006146,
                9.794757130500793
              ],
              [
                106.08006060340456,
                9.795769101775177
              ],
              [
                106.07848727618475,
                9.796963885502896
              ],
              [
                106.0780626791601,
                9.79733431929629
              ],
              [
                106.07791025967376,
                9.79685242654117
              ],
              [
                106.077885422044,
                9.79674457467894
              ],
              [
                106.07771270864087,
                9.796872640541562
              ],
              [
                106.07723841327466,
                9.79634668008629
              ],
              [
                106.07758175411861,
                9.793951413062743
              ],
              [
                106.07851825381482,
                9.79339555083271
              ],
              [
                106.07827555095963,
                9.792946558125845
              ],
              [
                106.07921202069801,
                9.792375713985177
              ],
              [
                106.07864757347558,
                9.791508814471216
              ],
              [
                106.079304847538,
                9.791121904556002
              ],
              [
                106.0790355852345,
                9.790709968157367
              ],
              [
                106.07965262123751,
                9.790349732282436
              ],
              [
                106.0793968783255,
                9.789990985521648
              ],
              [
                106.08063506423821,
                9.789102961964085
              ],
              [
                106.0807107918685,
                9.78923373470498
              ],
              [
                106.08092764251742,
                9.789111811697484
              ],
              [
                106.07891847947543,
                9.78687675802755
              ],
              [
                106.07827167775591,
                9.786161475197849
              ],
              [
                106.07765895970425,
                9.785631102333248
              ],
              [
                106.0774654692801,
                9.785207959747105
              ],
              [
                106.07734654487962,
                9.784699505698642
              ],
              [
                106.07737528689539,
                9.784254936655827
              ],
              [
                106.07752752189934,
                9.783723594779092
              ],
              [
                106.07756820102459,
                9.783402541208332
              ],
              [
                106.07747920879208,
                9.783035019517385
              ],
              [
                106.0711422481315,
                9.776585700919295
              ],
              [
                106.07355245310998,
                9.77442102968651
              ],
              [
                106.07457441527244,
                9.773806828329107
              ],
              [
                106.07693543828553,
                9.772415751666621
              ],
              [
                106.07899956016783,
                9.771368901537253
              ],
              [
                106.08111920579502,
                9.77054039328981
              ],
              [
                106.08438002230345,
                9.769486803672384
              ],
              [
                106.08712015383435,
                9.768135892380949
              ],
              [
                106.09112346749612,
                9.766049590822456
              ],
              [
                106.09349146632923,
                9.76459041689359
              ],
              [
                106.0963744808781,
                9.762598690908968
              ],
              [
                106.09931931967766,
                9.76052867642911
              ],
              [
                106.10420285857015,
                9.75705204016471
              ],
              [
                106.10694691694736,
                9.755098422380543
              ],
              [
                106.10832394875172,
                9.75389233031454
              ],
              [
                106.11037925416467,
                9.752092137425102
              ],
              [
                106.11133989016552,
                9.751278940318894
              ],
              [
                106.11186475396286,
                9.753409083221952
              ],
              [
                106.11216706218087,
                9.759290675375599
              ],
              [
                106.1119256742856,
                9.761469389135792
              ],
              [
                106.1118188047162,
                9.762043536009418
              ],
              [
                106.11181880488124,
                9.762043626424195
              ],
              [
                106.11179344094022,
                9.762179656255556
              ],
              [
                106.11174271317138,
                9.76245180632794
              ],
              [
                106.11141852643604,
                9.763213773832337
              ],
              [
                106.11099081217232,
                9.763935240072529
              ],
              [
                106.11005747105014,
                9.7652412415241
              ],
              [
                106.1098550522691,
                9.76545272338015
              ],
              [
                106.1096526332333,
                9.765664205128823
              ],
              [
                106.1092895506122,
                9.766042790181706
              ],
              [
                106.10896913577135,
                9.766377447245407
              ],
              [
                106.10885250517899,
                9.766499173741964
              ],
              [
                106.10885159452248,
                9.766499627446114
              ],
              [
                106.10885150468935,
                9.766500350927547
              ],
              [
                106.10852828555197,
                9.766797038292587
              ],
              [
                106.1080912294498,
                9.767198448610026
              ],
              [
                106.10765408098295,
                9.76759976816841
              ],
              [
                106.10749729364832,
                9.767743898461342
              ],
              [
                106.10741885443808,
                9.767816008872074
              ],
              [
                106.10634758651975,
                9.76862179973753
              ],
              [
                106.10626022706927,
                9.768700978175199
              ],
              [
                106.10591051524278,
                9.769017601794921
              ],
              [
                106.10563230454437,
                9.769205708370833
              ],
              [
                106.10532059167535,
                9.769416478108171
              ],
              [
                106.10439909459075,
                9.770033029266617
              ],
              [
                106.10393268429637,
                9.770336205567869
              ],
              [
                106.10339025265108,
                9.77068888275652
              ],
              [
                106.10339025330282,
                9.770689244416012
              ],
              [
                106.10203277446591,
                9.771536696289425
              ]
            ]
          ]
        ]
      }
    }
  ]
}