{
  "type": "FeatureCollection",
  "name": "Ấp Mỹ Văn",
  "crs": {
    "type": "name",
    "properties": {
      "name": "urn:ogc:def:crs:OGC:1.3:CRS84"
    }
  },
  "features": [
    {
      "type": "Feature",
      "properties": {
        "Layer": "11- MY VA",
        "PaperSpace": null,
        "SubClasses": "AcDbEntity:AcDbHatch",
        "Linetype": "Continuou",
        "EntityHandle": "3E3",
        "Text": "ANSI31",
        "ten": "Ấp Mỹ Văn",
        "ma": "3005012",
        "loai": "Ấp",
        "dien_tich_ha": "345.843",
        "dan_so": "3476",
        "so_ho": "836",
        "sap_nhap_tu": [
          "Ấp Mỹ Văn",
          "Ấp Vàm Đình"
        ],
        "audio": "audio/Ap My Van.mp3",
        "dien_tich_km2": "3.46",
        "mat_do_km2": "1004.62"
      },
      "geometry": {
        "type": "MultiPolygon",
        "coordinates": [
          [
            [
              [
                106.0840882888172,
                9.806011795393832
              ],
              [
                106.08393863363938,
                9.806233654099293
              ],
              [
                106.08392998914762,
                9.80624243899478
              ],
              [
                106.08368033914549,
                9.806622962841596
              ],
              [
                106.0834575984711,
                9.806962031311985
              ],
              [
                106.08336005007646,
                9.807112283862171
              ],
              [
                106.08333190666946,
                9.80717815256385
              ],
              [
                106.08330080956293,
                9.80722305064966
              ],
              [
                106.082815090901,
                9.807933262215954
              ],
              [
                106.08120565021423,
                9.810355101804031
              ],
              [
                106.08116609916536,
                9.810413937737772
              ],
              [
                106.08111231449438,
                9.810498915404244
              ],
              [
                106.08015338151614,
                9.809967949776027
              ],
              [
                106.07943104374863,
                9.809597861006928
              ],
              [
                106.07689347946447,
                9.808167883867066
              ],
              [
                106.07686894482508,
                9.808212860660175
              ],
              [
                106.07656272872542,
                9.808781805388614
              ],
              [
                106.07646569335891,
                9.808967316173534
              ],
              [
                106.07636544676255,
                9.809140897934448
              ],
              [
                106.0759556497419,
                9.809854135920505
              ],
              [
                106.07580036856608,
                9.810147878940391
              ],
              [
                106.07549158007694,
                9.810654442527525
              ],
              [
                106.07529782643607,
                9.810999243360277
              ],
              [
                106.07527491850001,
                9.811036260986148
              ],
              [
                106.07469825914376,
                9.812044525838271
              ],
              [
                106.07450055341116,
                9.811948300385598
              ],
              [
                106.07447435867408,
                9.811929538968915
              ],
              [
                106.0742444364793,
                9.81181139770439
              ],
              [
                106.07397227471633,
                9.811673798688107
              ],
              [
                106.07372664679428,
                9.81154004226781
              ],
              [
                106.07347090443139,
                9.811408563086058
              ],
              [
                106.07318150467574,
                9.811265296566495
              ],
              [
                106.07305673740102,
                9.811493799380116
              ],
              [
                106.07289334700455,
                9.811791713914838
              ],
              [
                106.072537747747,
                9.812433882725477
              ],
              [
                106.07241018213153,
                9.812678935569991
              ],
              [
                106.07226568650908,
                9.812938935044222
              ],
              [
                106.0721230911843,
                9.81319088453432
              ],
              [
                106.0721133796036,
                9.813215583574184
              ],
              [
                106.07196608461626,
                9.813491319459706
              ],
              [
                106.07186965744806,
                9.813661638748995
              ],
              [
                106.07181178802657,
                9.813777464556136
              ],
              [
                106.07165530105027,
                9.814062257098163
              ],
              [
                106.07160667199174,
                9.814144433792135
              ],
              [
                106.07150737032862,
                9.81433980213709
              ],
              [
                106.07136633364661,
                9.81459762554409
              ],
              [
                106.07105170397145,
                9.815164392091075
              ],
              [
                106.0707263003836,
                9.814994095747064
              ],
              [
                106.07007002261078,
                9.814434570739747
              ],
              [
                106.06908588419302,
                9.813619431640364
              ],
              [
                106.06808541675068,
                9.8127951285002
              ],
              [
                106.06734853550071,
                9.812134803105852
              ],
              [
                106.0665420655405,
                9.811431741991546
              ],
              [
                106.06613022250617,
                9.81126118907482
              ],
              [
                106.06583020923813,
                9.81121414789548
              ],
              [
                106.06564999458476,
                9.811499138262866
              ],
              [
                106.06545963375777,
                9.811750628849731
              ],
              [
                106.06482869236,
                9.81263986690361
              ],
              [
                106.06455671827914,
                9.812960795410133
              ],
              [
                106.0633604404486,
                9.812016654937224
              ],
              [
                106.0635802191661,
                9.811791366851406
              ],
              [
                106.06272113024279,
                9.811087109131103
              ],
              [
                106.06250694338324,
                9.811035973229568
              ],
              [
                106.06206682874804,
                9.811470567711456
              ],
              [
                106.06160402312432,
                9.812035614392798
              ],
              [
                106.06146909599731,
                9.812107749994595
              ],
              [
                106.06130130549116,
                9.812009813509958
              ],
              [
                106.05996866256721,
                9.810962917565854
              ],
              [
                106.05903961233035,
                9.81027671086563
              ],
              [
                106.05863485551636,
                9.809846610265197
              ],
              [
                106.05847636155292,
                9.809412291042053
              ],
              [
                106.0596374625214,
                9.808873312680618
              ],
              [
                106.06174414036452,
                9.807870909035831
              ],
              [
                106.06277845550333,
                9.807221910843406
              ],
              [
                106.06366751541678,
                9.806693391505487
              ],
              [
                106.06481350287291,
                9.80598589054827
              ],
              [
                106.06680612006855,
                9.80438335006182
              ],
              [
                106.06709408391059,
                9.80420792990001
              ],
              [
                106.0688129762471,
                9.803626220160936
              ],
              [
                106.07012384216672,
                9.80302338601842
              ],
              [
                106.07101706541381,
                9.802450413451723
              ],
              [
                106.07162908372021,
                9.801864867086827
              ],
              [
                106.07289867664966,
                9.800881222474619
              ],
              [
                106.07421395989098,
                9.800080673112252
              ],
              [
                106.075995039196,
                9.798919031985106
              ],
              [
                106.07741948305002,
                9.797895464332978
              ],
              [
                106.0780626791601,
                9.79733431929629
              ],
              [
                106.07848727618475,
                9.796963885502896
              ],
              [
                106.08006060340456,
                9.795769101775177
              ],
              [
                106.08014006064265,
                9.795699779484229
              ],
              [
                106.0815254694763,
                9.796402081691674
              ],
              [
                106.08266444274066,
                9.797006011492389
              ],
              [
                106.08334768249908,
                9.797614124836588
              ],
              [
                106.08368558749795,
                9.798235479327388
              ],
              [
                106.08393920482837,
                9.798455205522194
              ],
              [
                106.08440441600024,
                9.798505605341223
              ],
              [
                106.08549494771391,
                9.798549806103638
              ],
              [
                106.0863280356257,
                9.79850247250432
              ],
              [
                106.08687053266127,
                9.798419613971507
              ],
              [
                106.08746531323166,
                9.798679707548517
              ],
              [
                106.087796769501,
                9.799078497761009
              ],
              [
                106.08819159896194,
                9.799438076575644
              ],
              [
                106.08818496661851,
                9.799556681133838
              ],
              [
                106.08799425625499,
                9.799962240233489
              ],
              [
                106.08794249646908,
                9.800074893417133
              ],
              [
                106.08779883042394,
                9.800278479914926
              ],
              [
                106.08774203913221,
                9.80032920926277
              ],
              [
                106.08748634791043,
                9.80074247531738
              ],
              [
                106.0874047917076,
                9.800861689718738
              ],
              [
                106.08714161321868,
                9.80126827798911
              ],
              [
                106.0871542193058,
                9.801283445464808
              ],
              [
                106.0871191999204,
                9.801326271157635
              ],
              [
                106.08613550895285,
                9.802862904402776
              ],
              [
                106.08603761385591,
                9.802970121891871
              ],
              [
                106.08589556716902,
                9.803214752145143
              ],
              [
                106.08591993010354,
                9.803228633582501
              ],
              [
                106.08511453093628,
                9.80445411821416
              ],
              [
                106.08466013642119,
                9.805140770807423
              ],
              [
                106.08420300096626,
                9.805824896042463
              ],
              [
                106.0840882888172,
                9.806011795393832
              ]
            ]
          ]
        ]
      }
    }
  ]
}