{
  "type": "FeatureCollection",
  "name": "Ấp III",
  "crs": {
    "type": "name",
    "properties": {
      "name": "urn:ogc:def:crs:OGC:1.3:CRS84"
    }
  },
  "features": [
    {
      "type": "Feature",
      "properties": {
        "Layer": "8- AP II",
        "PaperSpace": null,
        "SubClasses": "AcDbEntity:AcDbHatch",
        "Linetype": "Continuou",
        "EntityHandle": "3AA",
        "Text": "ANSI31",
        "ten": "Ấp III",
        "ma": "3005009",
        "loai": "Ấp",
        "dien_tich_ha": "470.032",
        "dan_so": "1770",
        "so_ho": "440",
        "sap_nhap_tu": [
          "Ấp III"
        ],
        "audio": "audio/Ấp 3",
        "dien_tich_km2": "4.7",
        "mat_do_km2": "376.6"
      },
      "geometry": {
        "type": "MultiPolygon",
        "coordinates": [
          [
            [
              [
                106.07832457686352,
                9.828254317458844
              ],
              [
                106.07837285031671,
                9.828668221920662
              ],
              [
                106.07379152695876,
                9.832268273939862
              ],
              [
                106.0736751154537,
                9.83216503980889
              ],
              [
                106.07340694441143,
                9.83186668121529
              ],
              [
                106.07312867699268,
                9.831581268472023
              ],
              [
                106.07286561896485,
                9.83133986060472
              ],
              [
                106.07276047259865,
                9.831425568886445
              ],
              [
                106.07242608116144,
                9.83099965906247
              ],
              [
                106.07254356361216,
                9.830930837147903
              ],
              [
                106.07215266454813,
                9.83019427477613
              ],
              [
                106.07194032613342,
                9.829794001205471
              ],
              [
                106.07193250474934,
                9.829769617726225
              ],
              [
                106.07191874470278,
                9.82971982368142
              ],
              [
                106.07180861768163,
                9.829506455416238
              ],
              [
                106.07175515773838,
                9.829431051294085
              ],
              [
                106.07172549161163,
                9.829355787781559
              ],
              [
                106.07163008281053,
                9.829099267793039
              ],
              [
                106.07146639800139,
                9.82887315127883
              ],
              [
                106.07070401584808,
                9.829199832812584
              ],
              [
                106.07067247323359,
                9.829146542608251
              ],
              [
                106.07026394517065,
                9.828439301036877
              ],
              [
                106.07018226055062,
                9.82827805226125
              ],
              [
                106.06969647555877,
                9.828343786705654
              ],
              [
                106.06936549287825,
                9.828254383275397
              ],
              [
                106.06900796239374,
                9.827780228192065
              ],
              [
                106.06813930701456,
                9.827319136846478
              ],
              [
                106.06788499607639,
                9.827231320996216
              ],
              [
                106.06762961689066,
                9.826998123261744
              ],
              [
                106.06734389979029,
                9.82656199984766
              ],
              [
                106.06731938601902,
                9.826299753935823
              ],
              [
                106.0672273817834,
                9.825966104748987
              ],
              [
                106.06703432179569,
                9.825604054444398
              ],
              [
                106.06686560494873,
                9.82540407307841
              ],
              [
                106.0665175470745,
                9.82518902167813
              ],
              [
                106.06625274241232,
                9.825094079442696
              ],
              [
                106.06580513448114,
                9.824985157410127
              ],
              [
                106.06524204113174,
                9.824885920964688
              ],
              [
                106.06478529586204,
                9.824710469085828
              ],
              [
                106.06492432140868,
                9.824485790856412
              ],
              [
                106.0653311925422,
                9.823970253505594
              ],
              [
                106.06545754506874,
                9.82386435007539
              ],
              [
                106.06567063903117,
                9.823625033414647
              ],
              [
                106.065900559,
                9.823309380226371
              ],
              [
                106.06621568682078,
                9.822870261546344
              ],
              [
                106.06656487561679,
                9.822465623243701
              ],
              [
                106.06676912168712,
                9.822277765566538
              ],
              [
                106.06721700599124,
                9.821908674420943
              ],
              [
                106.0679289564082,
                9.821275179466458
              ],
              [
                106.06795276564473,
                9.820999155724664
              ],
              [
                106.06800808429057,
                9.820882882698518
              ],
              [
                106.06821631134318,
                9.820617511779215
              ],
              [
                106.06837387309884,
                9.820218730611263
              ],
              [
                106.06853463169011,
                9.819869739232887
              ],
              [
                106.06855162373951,
                9.81984428741875
              ],
              [
                106.06862475077526,
                9.819740297864158
              ],
              [
                106.06865223299728,
                9.819712042977878
              ],
              [
                106.06872820374504,
                9.819518432371552
              ],
              [
                106.06882797722089,
                9.819330658594698
              ],
              [
                106.06910016879824,
                9.818896039872213
              ],
              [
                106.06924678573357,
                9.818647610811817
              ],
              [
                106.06959817653603,
                9.817989313396636
              ],
              [
                106.06959252162159,
                9.817987559859786
              ],
              [
                106.06974412742487,
                9.81767167440349
              ],
              [
                106.07002777506379,
                9.817114345830928
              ],
              [
                106.07033016364214,
                9.816482123850232
              ],
              [
                106.07065090122184,
                9.815918945978042
              ],
              [
                106.07105729322468,
                9.815167317160157
              ],
              [
                106.07105600060193,
                9.815166640681454
              ],
              [
                106.07107234169708,
                9.815127215838826
              ],
              [
                106.07136633364661,
                9.81459762554409
              ],
              [
                106.07150737032862,
                9.81433980213709
              ],
              [
                106.07160667199174,
                9.814144433792135
              ],
              [
                106.07165530105027,
                9.814062257098163
              ],
              [
                106.07181178802657,
                9.813777464556136
              ],
              [
                106.07186965744806,
                9.813661638748995
              ],
              [
                106.07196608461626,
                9.813491319459706
              ],
              [
                106.07218510773778,
                9.813081308489576
              ],
              [
                106.07226568650908,
                9.812938935044222
              ],
              [
                106.07241018213153,
                9.812678935569991
              ],
              [
                106.072537747747,
                9.812433882725477
              ],
              [
                106.07289334700455,
                9.811791713914838
              ],
              [
                106.07305673740102,
                9.811493799380116
              ],
              [
                106.07318150467574,
                9.811265296566495
              ],
              [
                106.07347090443139,
                9.811408563086058
              ],
              [
                106.07372664679428,
                9.81154004226781
              ],
              [
                106.07397227471633,
                9.811673798688107
              ],
              [
                106.0742444364793,
                9.81181139770439
              ],
              [
                106.07447435867408,
                9.811929538968915
              ],
              [
                106.07450055341116,
                9.811948300385598
              ],
              [
                106.07469825914376,
                9.812044525838271
              ],
              [
                106.07527491850001,
                9.811036260986148
              ],
              [
                106.07529782643607,
                9.810999243360277
              ],
              [
                106.07549158007694,
                9.810654442527525
              ],
              [
                106.07580036856608,
                9.810147878940391
              ],
              [
                106.0759556497419,
                9.809854135920505
              ],
              [
                106.07636544676255,
                9.809140897934448
              ],
              [
                106.07646569335891,
                9.808967316173534
              ],
              [
                106.07656272872542,
                9.808781805388614
              ],
              [
                106.07686894482508,
                9.808212860660175
              ],
              [
                106.07689347946447,
                9.808167883867066
              ],
              [
                106.07943104374863,
                9.809597861006928
              ],
              [
                106.08015338151614,
                9.809967949776027
              ],
              [
                106.08111231449438,
                9.810498915404244
              ],
              [
                106.08114633442689,
                9.810445165253542
              ],
              [
                106.08233357083613,
                9.81120854366694
              ],
              [
                106.09216004828217,
                9.815770994729307
              ],
              [
                106.07832457686352,
                9.828254317458844
              ]
            ]
          ]
        ]
      }
    }
  ]
}