{
  "type": "FeatureCollection",
  "name": "Ấp Đồng Khoen",
  "crs": {
    "type": "name",
    "properties": {
      "name": "urn:ogc:def:crs:OGC:1.3:CRS84"
    }
  },
  "features": [
    {
      "type": "Feature",
      "properties": {
        "Layer": "10- DONG KHOE",
        "PaperSpace": null,
        "SubClasses": "AcDbEntity:AcDbHatch",
        "Linetype": "Continuou",
        "EntityHandle": "3B5",
        "Text": "ANSI31",
        "ten": "Ấp Đồng Khoen",
        "ma": "3005006",
        "loai": "Ấp",
        "dien_tich_ha": "515.432",
        "dan_so": "2718",
        "so_ho": "634",
        "sap_nhap_tu": [
          "Ấp Đồng Khoen"
        ],
        "audio": "audio/Ấp Đồng Khoen",
        "dien_tich_km2": "5.15",
        "mat_do_km2": "527.77"
      },
      "geometry": {
        "type": "MultiPolygon",
        "coordinates": [
          [
            [
              [
                106.09937651476778,
                9.807668838124487
              ],
              [
                106.09711797074897,
                9.805765756109553
              ],
              [
                106.09622708321704,
                9.805007316880621
              ],
              [
                106.0953904688336,
                9.8039316010809
              ],
              [
                106.09457618434118,
                9.80314409946592
              ],
              [
                106.09420479148535,
                9.802854447192491
              ],
              [
                106.09187218931763,
                9.802238335823285
              ],
              [
                106.09112430699851,
                9.80181687454583
              ],
              [
                106.0907912430593,
                9.80161475708794
              ],
              [
                106.09010315711276,
                9.80065686024367
              ],
              [
                106.08973391428262,
                9.80018942059105
              ],
              [
                106.09001741843075,
                9.799952670692749
              ],
              [
                106.0901904775253,
                9.799721727665638
              ],
              [
                106.09050511003089,
                9.799445241608899
              ],
              [
                106.09082940318497,
                9.79911657050771
              ],
              [
                106.09118554575846,
                9.79875741987096
              ],
              [
                106.09149966235664,
                9.798499423209512
              ],
              [
                106.09178192851411,
                9.798271905592522
              ],
              [
                106.09207494518459,
                9.798067107721634
              ],
              [
                106.09236796148795,
                9.797862309616262
              ],
              [
                106.09283444754045,
                9.797557076600047
              ],
              [
                106.09330093271834,
                9.797251842987642
              ],
              [
                106.09431394717423,
                9.796546662493672
              ],
              [
                106.09491331559202,
                9.796104581047226
              ],
              [
                106.09556588450617,
                9.795695948270778
              ],
              [
                106.09579418694601,
                9.795573038918413
              ],
              [
                106.09676584542599,
                9.794991246634593
              ],
              [
                106.09707579388825,
                9.794700658887486
              ],
              [
                106.09710729820223,
                9.794732247794457
              ],
              [
                106.09757288260874,
                9.79507436253449
              ],
              [
                106.09751137423885,
                9.795187486202849
              ],
              [
                106.09765465309825,
                9.795230541489666
              ],
              [
                106.0977435727022,
                9.795306692929623
              ],
              [
                106.09870287950854,
                9.796023780223445
              ],
              [
                106.09874603782303,
                9.795996761235184
              ],
              [
                106.09881100237527,
                9.795930374425291
              ],
              [
                106.09896302885242,
                9.795920612917557
              ],
              [
                106.09904152925164,
                9.795930238922478
              ],
              [
                106.09947051400817,
                9.796142583370301
              ],
              [
                106.09960471063097,
                9.7962037362896
              ],
              [
                106.10005339816057,
                9.796473999420286
              ],
              [
                106.10051689974158,
                9.796837639351352
              ],
              [
                106.10063319348833,
                9.79670922121136
              ],
              [
                106.10073297716816,
                9.79679412256434
              ],
              [
                106.10073805566581,
                9.796830278481488
              ],
              [
                106.1008720951507,
                9.79695580467559
              ],
              [
                106.10125111298423,
                9.797361174919212
              ],
              [
                106.10134916777282,
                9.797435735804983
              ],
              [
                106.10160020759304,
                9.796892220876106
              ],
              [
                106.10198730753673,
                9.797077964590711
              ],
              [
                106.10210380249177,
                9.796985240442808
              ],
              [
                106.10213544177776,
                9.796922396263312
              ],
              [
                106.1020647628043,
                9.796861651536245
              ],
              [
                106.10194392545908,
                9.796778505766463
              ],
              [
                106.10194388308443,
                9.796754998657933
              ],
              [
                106.10211302483688,
                9.796530928354793
              ],
              [
                106.10228216636641,
                9.796306857977944
              ],
              [
                106.10249533641498,
                9.79603316347482
              ],
              [
                106.10260932521713,
                9.795756118858803
              ],
              [
                106.10268787914895,
                9.795492337310732
              ],
              [
                106.1027544123507,
                9.795487517744888
              ],
              [
                106.10292463236583,
                9.795507919863065
              ],
              [
                106.10298712460092,
                9.795385390698465
              ],
              [
                106.10309074215502,
                9.795069396694728
              ],
              [
                106.10321601454925,
                9.794504459303356
              ],
              [
                106.10334128657517,
                9.793939521872492
              ],
              [
                106.10333676807258,
                9.793873980474132
              ],
              [
                106.10374059844416,
                9.79387317276007
              ],
              [
                106.10395113144058,
                9.793906974144015
              ],
              [
                106.10558894853948,
                9.794098804659304
              ],
              [
                106.10571585980004,
                9.79411340586473
              ],
              [
                106.10573881286747,
                9.794103781220807
              ],
              [
                106.10633026822407,
                9.794184638909156
              ],
              [
                106.10703680323313,
                9.794292642683178
              ],
              [
                106.10800836251434,
                9.794418608133727
              ],
              [
                106.10824296651089,
                9.794455708950027
              ],
              [
                106.10842577938872,
                9.794483861205714
              ],
              [
                106.10934067128798,
                9.794628326391692
              ],
              [
                106.10959715496682,
                9.794666923989176
              ],
              [
                106.1097872539707,
                9.79469162675358
              ],
              [
                106.10990114970124,
                9.794716647142641
              ],
              [
                106.11003808395238,
                9.794728968397036
              ],
              [
                106.11043598173458,
                9.794787111466043
              ],
              [
                106.11073877811643,
                9.794829422216575
              ],
              [
                106.11105289353662,
                9.79488048229372
              ],
              [
                106.11129342531105,
                9.794918836061566
              ],
              [
                106.11139608062162,
                9.794928144471164
              ],
              [
                106.11157532621851,
                9.794949339691659
              ],
              [
                106.11172264421027,
                9.794957392182045
              ],
              [
                106.1118551309823,
                9.794980027686544
              ],
              [
                106.11197190421753,
                9.7949834336885
              ],
              [
                106.1120906044179,
                9.794993797907033
              ],
              [
                106.11222945268479,
                9.795005933990584
              ],
              [
                106.11232160624202,
                9.79500477325358
              ],
              [
                106.11240238958224,
                9.795016652343548
              ],
              [
                106.11249906853514,
                9.795051486940894
              ],
              [
                106.11260666134739,
                9.795065196727942
              ],
              [
                106.11317313553246,
                9.795141747590218
              ],
              [
                106.11326148858429,
                9.795155782689026
              ],
              [
                106.11337949135174,
                9.795183416416297
              ],
              [
                106.11384121272346,
                9.795250029246251
              ],
              [
                106.11400058627419,
                9.795270716626199
              ],
              [
                106.1142923859657,
                9.795330493569177
              ],
              [
                106.11449590495283,
                9.795366018814692
              ],
              [
                106.11457941535605,
                9.79537373348575
              ],
              [
                106.11476397394816,
                9.795408931244472
              ],
              [
                106.11487303577003,
                9.79543215044075
              ],
              [
                106.11495554650895,
                9.795441494245269
              ],
              [
                106.11512851427497,
                9.795468846950333
              ],
              [
                106.1153354938792,
                9.795502557170247
              ],
              [
                106.11549535002462,
                9.795537708886393
              ],
              [
                106.11556920044934,
                9.7955466161811
              ],
              [
                106.11603718768009,
                9.79564937941513
              ],
              [
                106.11613478991046,
                9.795686452031555
              ],
              [
                106.11617421763916,
                9.79571332324934
              ],
              [
                106.11620898998713,
                9.795758977799519
              ],
              [
                106.11621256231726,
                9.795795438174283
              ],
              [
                106.116281476708,
                9.795945035374908
              ],
              [
                106.1163291222091,
                9.796028851224703
              ],
              [
                106.1163841059905,
                9.796186972419708
              ],
              [
                106.11641152710956,
                9.796277063406844
              ],
              [
                106.116468254113,
                9.796342509099471
              ],
              [
                106.11671170495457,
                9.79657867510436
              ],
              [
                106.11685470963691,
                9.796669279316854
              ],
              [
                106.11716370928252,
                9.796910298489085
              ],
              [
                106.11741204505769,
                9.797076476162001
              ],
              [
                106.11763727956037,
                9.79721292774855
              ],
              [
                106.11756087578651,
                9.79735079284382
              ],
              [
                106.11754091951092,
                9.797531385093738
              ],
              [
                106.11764857458854,
                9.797709653055032
              ],
              [
                106.11783348079906,
                9.797833361745848
              ],
              [
                106.11787576930483,
                9.7978789428124
              ],
              [
                106.11804743441209,
                9.79818666386299
              ],
              [
                106.1182835996039,
                9.79832664349425
              ],
              [
                106.1183644792683,
                9.79843923986672
              ],
              [
                106.11832247157197,
                9.79869301240659
              ],
              [
                106.11812012924143,
                9.798654232633169
              ],
              [
                106.1180534123404,
                9.798658422685278
              ],
              [
                106.11798074590621,
                9.798698607526408
              ],
              [
                106.11779656937865,
                9.798870996866672
              ],
              [
                106.11763804480879,
                9.798965313887747
              ],
              [
                106.11758372908443,
                9.79897183199204
              ],
              [
                106.11750594454838,
                9.798955518561735
              ],
              [
                106.1173740940449,
                9.798883609693737
              ],
              [
                106.1171917735541,
                9.798827524251589
              ],
              [
                106.11716832951416,
                9.79881807362978
              ],
              [
                106.11707295261913,
                9.798752607966106
              ],
              [
                106.11685986931141,
                9.798623344555889
              ],
              [
                106.11675648955259,
                9.798567929074183
              ],
              [
                106.11666581641268,
                9.798532109874033
              ],
              [
                106.11663625344903,
                9.79856570644466
              ],
              [
                106.11659894377583,
                9.798649405337356
              ],
              [
                106.11649316252213,
                9.798971825896215
              ],
              [
                106.11664650697014,
                9.799033841150413
              ],
              [
                106.11668453801569,
                9.7991432609699
              ],
              [
                106.11668158295383,
                9.799270656844513
              ],
              [
                106.11676986784212,
                9.799543178970499
              ],
              [
                106.11679797010338,
                9.799913790719417
              ],
              [
                106.11730950281749,
                9.800086658668796
              ],
              [
                106.11768757501909,
                9.800165804410803
              ],
              [
                106.11768504252416,
                9.800324301214655
              ],
              [
                106.1176853912151,
                9.800561993661802
              ],
              [
                106.11767723020151,
                9.800634428510005
              ],
              [
                106.1174726324574,
                9.800756766669336
              ],
              [
                106.117320336368,
                9.80081852394288
              ],
              [
                106.11713888974066,
                9.800742636726959
              ],
              [
                106.11713818228925,
                9.800705117041105
              ],
              [
                106.11668929079752,
                9.800630439218923
              ],
              [
                106.11713687801014,
                9.801232221262392
              ],
              [
                106.11707275624646,
                9.801506376603914
              ],
              [
                106.11705400095339,
                9.801715804859535
              ],
              [
                106.116983079949,
                9.801714396841419
              ],
              [
                106.11679092164849,
                9.80190949365886
              ],
              [
                106.11675229259082,
                9.801969959091501
              ],
              [
                106.11668791930376,
                9.802108225624272
              ],
              [
                106.11662982277092,
                9.802239519015217
              ],
              [
                106.11660111852835,
                9.802343364144999
              ],
              [
                106.11655557986191,
                9.802611066381173
              ],
              [
                106.11652182599171,
                9.802892761050078
              ],
              [
                106.11651989497726,
                9.802904579828507
              ],
              [
                106.11634476284515,
                9.802920477641383
              ],
              [
                106.11613355316989,
                9.802968056390128
              ],
              [
                106.1160145257101,
                9.803226398788594
              ],
              [
                106.11624810395816,
                9.803494136463756
              ],
              [
                106.11606339327874,
                9.80357656607194
              ],
              [
                106.11591522086175,
                9.803799067818394
              ],
              [
                106.1158596841156,
                9.803934696227213
              ],
              [
                106.11584067261641,
                9.804104524455397
              ],
              [
                106.1161339179722,
                9.80425172506635
              ],
              [
                106.11644315184098,
                9.80427042093247
              ],
              [
                106.11706492159186,
                9.804663848118514
              ],
              [
                106.11715337996036,
                9.804782669307972
              ],
              [
                106.11727840320154,
                9.804809113312158
              ],
              [
                106.11741096295825,
                9.804918180077399
              ],
              [
                106.11741843055889,
                9.80501282780029
              ],
              [
                106.11740590957373,
                9.80516924025766
              ],
              [
                106.11743638140122,
                9.805156911776182
              ],
              [
                106.11784271202217,
                9.80645293144973
              ],
              [
                106.11854112614958,
                9.806647509308933
              ],
              [
                106.11881223841893,
                9.806704245415164
              ],
              [
                106.11884519142427,
                9.807171072443634
              ],
              [
                106.11893907331849,
                9.808001334548539
              ],
              [
                106.11892203025305,
                9.808052177156664
              ],
              [
                106.11885210614173,
                9.808146604421875
              ],
              [
                106.11880973786471,
                9.808353634628435
              ],
              [
                106.11887671587759,
                9.808489130245212
              ],
              [
                106.11888199058,
                9.808580707884822
              ],
              [
                106.11886493187922,
                9.808623142211246
              ],
              [
                106.11871489071434,
                9.808870240590384
              ],
              [
                106.11872010248494,
                9.808927913879916
              ],
              [
                106.11875612495595,
                9.808985440524694
              ],
              [
                106.1187612926194,
                9.80901933556022
              ],
              [
                106.11872224020901,
                9.809146616396442
              ],
              [
                106.11872412324064,
                9.809277167761055
              ],
              [
                106.11874502870386,
                9.809342768653536
              ],
              [
                106.11878793846306,
                9.809427496704933
              ],
              [
                106.1190554051712,
                9.809728893738992
              ],
              [
                106.11907109147442,
                9.809781936880533
              ],
              [
                106.11908851845897,
                9.809937865587244
              ],
              [
                106.11916591113015,
                9.810134460532794
              ],
              [
                106.11926543299737,
                9.810319171067615
              ],
              [
                106.1193717189909,
                9.810415627195393
              ],
              [
                106.11936851157392,
                9.810455595113798
              ],
              [
                106.11916229125505,
                9.810885066724827
              ],
              [
                106.1188323432605,
                9.81115283644113
              ],
              [
                106.11863726090574,
                9.81114975690515
              ],
              [
                106.11849690436893,
                9.811114481172773
              ],
              [
                106.11845007533178,
                9.811128399642866
              ],
              [
                106.11835955973356,
                9.811228650769483
              ],
              [
                106.11831029725481,
                9.811405043859407
              ],
              [
                106.11825052977485,
                9.811471334402361
              ],
              [
                106.11821466098615,
                9.811496805574855
              ],
              [
                106.11811543816714,
                9.81152248270069
              ],
              [
                106.1179921622386,
                9.811456525977578
              ],
              [
                106.11789459281256,
                9.811439796836831
              ],
              [
                106.1178536128333,
                9.81146184163767
              ],
              [
                106.1177510277596,
                9.811739231559468
              ],
              [
                106.11774954406398,
                9.811824040639577
              ],
              [
                106.11773933443023,
                9.811873243329694
              ],
              [
                106.11762854671382,
                9.812102368209452
              ],
              [
                106.11757222402669,
                9.812158435821408
              ],
              [
                106.1175363520966,
                9.812182279519758
              ],
              [
                106.11745080880438,
                9.812211276780166
              ],
              [
                106.11740273225384,
                9.812290022734253
              ],
              [
                106.11739605250646,
                9.812374841281345
              ],
              [
                106.11742180904479,
                9.812451102016405
              ],
              [
                106.1174612707492,
                9.812495151136563
              ],
              [
                106.11756569938557,
                9.812523802257338
              ],
              [
                106.11758624748435,
                9.812544107493178
              ],
              [
                106.11777225451543,
                9.813060472535591
              ],
              [
                106.11793704848968,
                9.813345059991258
              ],
              [
                106.11809981201482,
                9.813468537043756
              ],
              [
                106.11820095306982,
                9.813592126435198
              ],
              [
                106.11826144004272,
                9.813716965322769
              ],
              [
                106.11827010009357,
                9.813766133593477
              ],
              [
                106.1182361644603,
                9.813900185939199
              ],
              [
                106.118234552025,
                9.813964652562458
              ],
              [
                106.11825857364303,
                9.813990014476877
              ],
              [
                106.11830646300879,
                9.814006924532066
              ],
              [
                106.11902912279271,
                9.814033632798917
              ],
              [
                106.11899912570425,
                9.81417762331419
              ],
              [
                106.11891006383827,
                9.814275611656885
              ],
              [
                106.11869761377847,
                9.814640721184071
              ],
              [
                106.1186038000372,
                9.814781663778678
              ],
              [
                106.11874237958006,
                9.814988273128332
              ],
              [
                106.11852156751921,
                9.81521958825107
              ],
              [
                106.11827474136041,
                9.815531055650025
              ],
              [
                106.11798636945862,
                9.81595326282931
              ],
              [
                106.1178927104316,
                9.81612883272758
              ],
              [
                106.11782784659208,
                9.816200195594112
              ],
              [
                106.11773710969757,
                9.816427746963878
              ],
              [
                106.11774124720706,
                9.816496000396324
              ],
              [
                106.11784350041195,
                9.817268112256242
              ],
              [
                106.11784559147283,
                9.817609232478171
              ],
              [
                106.11779738179008,
                9.81771483107632
              ],
              [
                106.11779343889754,
                9.817800729556032
              ],
              [
                106.11789504016775,
                9.818171775410812
              ],
              [
                106.11806184236848,
                9.81855454619685
              ],
              [
                106.11816021164647,
                9.81870643944695
              ],
              [
                106.11823976723032,
                9.819085119971865
              ],
              [
                106.11826501728353,
                9.819280996395701
              ],
              [
                106.11820618042843,
                9.819603874164445
              ],
              [
                106.11804488218219,
                9.820124488859323
              ],
              [
                106.11800546013984,
                9.820348058936647
              ],
              [
                106.11762868985869,
                9.821131080223248
              ],
              [
                106.11741480704382,
                9.821463824308664
              ],
              [
                106.1173156747333,
                9.821687503196149
              ],
              [
                106.11713688660083,
                9.821871907679258
              ],
              [
                106.11707720128386,
                9.821885216593516
              ],
              [
                106.11682496758723,
                9.821839656547178
              ],
              [
                106.11659248496471,
                9.821728240492526
              ],
              [
                106.11647955600684,
                9.821689026539506
              ],
              [
                106.11635350626243,
                9.821702456148492
              ],
              [
                106.11563100893406,
                9.82211794744626
              ],
              [
                106.11546556645145,
                9.82228255720556
              ],
              [
                106.11405525534539,
                9.821252131158785
              ],
              [
                106.11348253534233,
                9.820580504475146
              ],
              [
                106.10436192610771,
                9.81263052780101
              ],
              [
                106.10301369103277,
                9.811937001841283
              ],
              [
                106.10203895351535,
                9.81030191968238
              ],
              [
                106.10159801578645,
                9.809835131287205
              ],
              [
                106.10043904295839,
                9.808961767160318
              ],
              [
                106.10007042977792,
                9.808475950007427
              ],
              [
                106.09937651476778,
                9.807668838124487
              ]
            ]
          ]
        ]
      }
    }
  ]
}