{
  "type": "FeatureCollection",
  "name": "Ấp Bắc Sa Ma",
  "crs": {
    "type": "name",
    "properties": {
      "name": "urn:ogc:def:crs:OGC:1.3:CRS84"
    }
  },
  "features": [
    {
      "type": "Feature",
      "properties": {
        "Layer": "3- BAC SA M",
        "PaperSpace": null,
        "SubClasses": "AcDbEntity:AcDbHatch",
        "Linetype": "Continuou",
        "EntityHandle": "39A",
        "Text": "ANSI31",
        "ten": "Ấp Bắc Sa Ma",
        "ma": "3005002",
        "loai": "Ấp",
        "dien_tich_ha": "725.1",
        "dan_so": "4196",
        "so_ho": "1016",
        "sap_nhap_tu": [
          "Giữ nguyên"
        ],
        "audio": "audio/Ấp Bắc SaMa"
      },
      "geometry": {
        "type": "MultiPolygon",
        "coordinates": [
          [
            [
              [
                106.14693023421778,
                9.833434889302588
              ],
              [
                106.14530398513254,
                9.835218112436099
              ],
              [
                106.14622665100956,
                9.83611273371054
              ],
              [
                106.14467523752974,
                9.837678684655659
              ],
              [
                106.14383266022809,
                9.837011199395466
              ],
              [
                106.13853568289446,
                9.842561051742084
              ],
              [
                106.14014290994338,
                9.842870865873643
              ],
              [
                106.13995185846828,
                9.84324138122149
              ],
              [
                106.1397600566211,
                9.843718316930145
              ],
              [
                106.14057691737348,
                9.843697449654103
              ],
              [
                106.14056328702796,
                9.844356204788035
              ],
              [
                106.13717030922054,
                9.844390009005634
              ],
              [
                106.14012352923335,
                9.847831474019713
              ],
              [
                106.13990271281473,
                9.848724808492554
              ],
              [
                106.13936082144191,
                9.848650682448975
              ],
              [
                106.13802934022056,
                9.85119161137573
              ],
              [
                106.13830769682569,
                9.851197956709225
              ],
              [
                106.13864500292463,
                9.851231947458846
              ],
              [
                106.13878678237523,
                9.851236561604367
              ],
              [
                106.13894681331507,
                9.851250182566055
              ],
              [
                106.13923765350195,
                9.851252977351098
              ],
              [
                106.13970633997465,
                9.851288616951708
              ],
              [
                106.1400188985938,
                9.85130167712194
              ],
              [
                106.1403572605484,
                9.851315773031116
              ],
              [
                106.14077093278803,
                9.851331533958069
              ],
              [
                106.14117167454465,
                9.851355456203477
              ],
              [
                106.1414236883375,
                9.851364651819877
              ],
              [
                106.14140054304652,
                9.852030364702776
              ],
              [
                106.1361588671756,
                9.851851096029568
              ],
              [
                106.1360697278788,
                9.852150173354726
              ],
              [
                106.13592304780482,
                9.85258597492475
              ],
              [
                106.13570465778143,
                9.853329500627476
              ],
              [
                106.13546824008408,
                9.854028968808569
              ],
              [
                106.13519737028305,
                9.8539438256257
              ],
              [
                106.13420729659919,
                9.853779053954325
              ],
              [
                106.13380709513119,
                9.853705394747815
              ],
              [
                106.132641668855,
                9.853524401799598
              ],
              [
                106.13206935226665,
                9.853363451606185
              ],
              [
                106.13191843262794,
                9.853299359211723
              ],
              [
                106.13148647188605,
                9.853112738792998
              ],
              [
                106.13112693462158,
                9.85303936190345
              ],
              [
                106.1303121188344,
                9.852982476711553
              ],
              [
                106.1303024230888,
                9.852629698225414
              ],
              [
                106.13022321111798,
                9.852638073817351
              ],
              [
                106.13016284661126,
                9.852681314128478
              ],
              [
                106.12979358706853,
                9.852576941812087
              ],
              [
                106.12975478589145,
                9.852548804934127
              ],
              [
                106.12980208713127,
                9.852299715685684
              ],
              [
                106.12957194647556,
                9.852190653224602
              ],
              [
                106.12964133253031,
                9.851712412931322
              ],
              [
                106.12910652924269,
                9.851619469442372
              ],
              [
                106.12889673556634,
                9.851277732492411
              ],
              [
                106.1285415087004,
                9.851553615230818
              ],
              [
                106.12826222085921,
                9.85175492908868
              ],
              [
                106.12796864575463,
                9.851392632420719
              ],
              [
                106.12710090417889,
                9.852090210874564
              ],
              [
                106.12684503944716,
                9.852265198141668
              ],
              [
                106.12657422130869,
                9.852430801735231
              ],
              [
                106.12635361384557,
                9.85256756160225
              ],
              [
                106.1260590409843,
                9.852756523252543
              ],
              [
                106.12580972139573,
                9.852941125813569
              ],
              [
                106.12540228267493,
                9.85323500432277
              ],
              [
                106.12473890132104,
                9.853669663013955
              ],
              [
                106.12372081830439,
                9.854363867587137
              ],
              [
                106.1222240647194,
                9.855390484625238
              ],
              [
                106.1216176277303,
                9.855802800198697
              ],
              [
                106.12105061039726,
                9.85617231486428
              ],
              [
                106.12001649832412,
                9.856844429614219
              ],
              [
                106.1186224678818,
                9.858213421946155
              ],
              [
                106.11840466908299,
                9.858737472381591
              ],
              [
                106.11807000429235,
                9.858694482104738
              ],
              [
                106.11788717769026,
                9.858723259408356
              ],
              [
                106.1177973299165,
                9.859022969701128
              ],
              [
                106.11614945633316,
                9.858590854263142
              ],
              [
                106.1159962836996,
                9.8585030926827
              ],
              [
                106.1157953002487,
                9.857902870800078
              ],
              [
                106.11601397546572,
                9.857983248055117
              ],
              [
                106.11607981101437,
                9.858038098161412
              ],
              [
                106.11620415034571,
                9.858100217974645
              ],
              [
                106.1161101267832,
                9.857425232302303
              ],
              [
                106.11608536378832,
                9.857247799345505
              ],
              [
                106.11600428615925,
                9.856692729086735
              ],
              [
                106.11595423526995,
                9.856349617604641
              ],
              [
                106.11582831434798,
                9.855653405994795
              ],
              [
                106.11579731268138,
                9.855405553638496
              ],
              [
                106.11576977943572,
                9.855208958389309
              ],
              [
                106.11554946591467,
                9.855232144044091
              ],
              [
                106.11497843084517,
                9.855259314061959
              ],
              [
                106.11480468253798,
                9.85527048003157
              ],
              [
                106.11439764771826,
                9.855290388570241
              ],
              [
                106.11425915823455,
                9.855288742014867
              ],
              [
                106.11413771085955,
                9.855283538333056
              ],
              [
                106.11389932236669,
                9.855294188578052
              ],
              [
                106.11384695805812,
                9.85517774308085
              ],
              [
                106.11366277972928,
                9.854873209589828
              ],
              [
                106.11343899451768,
                9.85444850032167
              ],
              [
                106.11329832413028,
                9.854203830495978
              ],
              [
                106.11327039818678,
                9.854139236826118
              ],
              [
                106.1130443050746,
                9.853698438117549
              ],
              [
                106.1130381695525,
                9.85368371214224
              ],
              [
                106.11298209261766,
                9.853580654152188
              ],
              [
                106.1129535508161,
                9.85352808633133
              ],
              [
                106.11254647600366,
                9.853525299236122
              ],
              [
                106.11253410783597,
                9.853492592616307
              ],
              [
                106.11209762353431,
                9.853461016983882
              ],
              [
                106.11187674159875,
                9.853422721203467
              ],
              [
                106.11190478456116,
                9.853402598951579
              ],
              [
                106.11237800779112,
                9.853037652519571
              ],
              [
                106.11241406251668,
                9.853011548516502
              ],
              [
                106.1127600154856,
                9.852746737486962
              ],
              [
                106.11288020251278,
                9.852662345937125
              ],
              [
                106.11323039306797,
                9.85242166671365
              ],
              [
                106.1136967377475,
                9.852085482016648
              ],
              [
                106.11398499320346,
                9.851877643712259
              ],
              [
                106.11405619212407,
                9.851826341159196
              ],
              [
                106.11465359158339,
                9.851368041789888
              ],
              [
                106.11527291564526,
                9.850836106331718
              ],
              [
                106.11528310688566,
                9.850776325593564
              ],
              [
                106.11546126679858,
                9.850490480583158
              ],
              [
                106.11490272143241,
                9.849922265801677
              ],
              [
                106.11478752540465,
                9.84979630594412
              ],
              [
                106.11432318387995,
                9.849290980737523
              ],
              [
                106.11372022282572,
                9.848612722965523
              ],
              [
                106.1133834289412,
                9.848256027451432
              ],
              [
                106.11292970257055,
                9.847769893259978
              ],
              [
                106.11260706146328,
                9.847424110998851
              ],
              [
                106.1124674133371,
                9.847286757484675
              ],
              [
                106.11198256142922,
                9.846778798613292
              ],
              [
                106.11183846255881,
                9.846600586720943
              ],
              [
                106.11201039270328,
                9.846446123085594
              ],
              [
                106.11231485265307,
                9.84617813314333
              ],
              [
                106.11218646038172,
                9.846013906749727
              ],
              [
                106.11212078569125,
                9.846044675374824
              ],
              [
                106.1120288128445,
                9.846052617445057
              ],
              [
                106.11189258535323,
                9.846039573701999
              ],
              [
                106.1115239322472,
                9.84600425738375
              ],
              [
                106.11132877517994,
                9.845971791131333
              ],
              [
                106.1109947089686,
                9.845905671605005
              ],
              [
                106.11068293133313,
                9.845813744069996
              ],
              [
                106.11066636227208,
                9.84582643168242
              ],
              [
                106.1106079429035,
                9.8458365730017
              ],
              [
                106.11056127396266,
                9.845804331019222
              ],
              [
                106.11011988667362,
                9.845864668829886
              ],
              [
                106.10971194202665,
                9.845961327396697
              ],
              [
                106.10952520609784,
                9.845641882610183
              ],
              [
                106.10913528285575,
                9.844969288701748
              ],
              [
                106.10903023269061,
                9.844756106061693
              ],
              [
                106.10989762077266,
                9.844523267713313
              ],
              [
                106.10985336940037,
                9.844484755987564
              ],
              [
                106.10989857877584,
                9.844469824643273
              ],
              [
                106.10986121178789,
                9.844426945128884
              ],
              [
                106.1129125394398,
                9.843575865682446
              ],
              [
                106.11381616907231,
                9.843308225471286
              ],
              [
                106.11389562510001,
                9.843284754147552
              ],
              [
                106.11414419832116,
                9.843211247422463
              ],
              [
                106.11420752596491,
                9.843192416487655
              ],
              [
                106.11434174455097,
                9.843152751710909
              ],
              [
                106.11503427967394,
                9.843013428758265
              ],
              [
                106.11538035891815,
                9.842916055032443
              ],
              [
                106.11549471637636,
                9.84288393039348
              ],
              [
                106.11560588425053,
                9.84285253484478
              ],
              [
                106.11599387919806,
                9.842743511075957
              ],
              [
                106.11607097072773,
                9.84272338890689
              ],
              [
                106.11608691784338,
                9.842719381589786
              ],
              [
                106.11751091086411,
                9.84234156184456
              ],
              [
                106.11851058107706,
                9.842099592520823
              ],
              [
                106.11863606580809,
                9.842070339750352
              ],
              [
                106.11928015895373,
                9.84181871173685
              ],
              [
                106.11967003594309,
                9.841693677062286
              ],
              [
                106.11969682674267,
                9.841686846845555
              ],
              [
                106.12005494863067,
                9.841595594591128
              ],
              [
                106.1202980333574,
                9.841513775421223
              ],
              [
                106.12040427546417,
                9.84148148324141
              ],
              [
                106.12044609748786,
                9.841468477184872
              ],
              [
                106.12055498090557,
                9.841434823892252
              ],
              [
                106.12060245196122,
                9.841419999153578
              ],
              [
                106.12079051463392,
                9.84136169804031
              ],
              [
                106.12081948935906,
                9.841352693777335
              ],
              [
                106.1211883249114,
                9.841238184150008
              ],
              [
                106.12130702050924,
                9.841186429686585
              ],
              [
                106.1213899161207,
                9.841150292304853
              ],
              [
                106.1215792093483,
                9.841067667005444
              ],
              [
                106.12161546460933,
                9.841051777784127
              ],
              [
                106.12169854231666,
                9.841015549580971
              ],
              [
                106.12175802661926,
                9.84098958160338
              ],
              [
                106.12181341173772,
                9.840965429447921
              ],
              [
                106.12200625741507,
                9.840881260338412
              ],
              [
                106.1220550836517,
                9.840859923065938
              ],
              [
                106.12211580126456,
                9.840810987476807
              ],
              [
                106.12273564686102,
                9.84049134476897
              ],
              [
                106.12279251492426,
                9.840455497176213
              ],
              [
                106.12288949475665,
                9.840394559923663
              ],
              [
                106.12291819735256,
                9.84038636972054
              ],
              [
                106.12297120124066,
                9.840356525661825
              ],
              [
                106.12328740253378,
                9.84017827823618
              ],
              [
                106.1233405880103,
                9.840148072130349
              ],
              [
                106.12368688751786,
                9.83992826859941
              ],
              [
                106.12487134061443,
                9.839200414476737
              ],
              [
                106.12584606453241,
                9.838597355114947
              ],
              [
                106.12649615354451,
                9.838196157447063
              ],
              [
                106.12691885884688,
                9.837934256925658
              ],
              [
                106.12747952218083,
                9.837587743222656
              ],
              [
                106.12818569908409,
                9.837151086380423
              ],
              [
                106.12869273072842,
                9.836840745800997
              ],
              [
                106.13085743905177,
                9.83551584996045
              ],
              [
                106.13342680036736,
                9.833943171530008
              ],
              [
                106.13725506764965,
                9.831574177561778
              ],
              [
                106.13732472667857,
                9.831531099537136
              ],
              [
                106.14143146624646,
                9.828983963150632
              ],
              [
                106.14316692676888,
                9.827884086010197
              ],
              [
                106.14776117934066,
                9.832623540913637
              ],
              [
                106.1470819662755,
                9.83326398758846
              ],
              [
                106.14693023421778,
                9.833434889302588
              ]
            ]
          ]
        ]
      }
    }
  ]
}