{
  "type": "FeatureCollection",
  "name": "Ấp II",
  "crs": {
    "type": "name",
    "properties": {
      "name": "urn:ogc:def:crs:OGC:1.3:CRS84"
    }
  },
  "features": [
    {
      "type": "Feature",
      "properties": {
        "Layer": "7- AP I",
        "PaperSpace": null,
        "SubClasses": "AcDbEntity:AcDbHatch",
        "Linetype": "Continuou",
        "EntityHandle": "3B1",
        "Text": "ANSI31",
        "ten": "Ấp II",
        "ma": "3005008",
        "loai": "Ấp",
        "dien_tich_ha": "421.891",
        "dan_so": "2224",
        "so_ho": "564",
        "sap_nhap_tu": [
          "Giữ nguyên"
        ],
        "audio": "audio/Ấp 2"
      },
      "geometry": {
        "type": "MultiPolygon",
        "coordinates": [
          [
            [
              [
                106.08585489884163,
                9.838278096664265
              ],
              [
                106.08471674337481,
                9.839253896543823
              ],
              [
                106.08457825033597,
                9.839454128073639
              ],
              [
                106.08446845934068,
                9.839516205149366
              ],
              [
                106.08441753537018,
                9.839394075170185
              ],
              [
                106.0825613814455,
                9.840321846082377
              ],
              [
                106.07931958214354,
                9.84211722612063
              ],
              [
                106.07921044532372,
                9.841929185333276
              ],
              [
                106.07912451993518,
                9.841745433857268
              ],
              [
                106.07906470954657,
                9.841484948013507
              ],
              [
                106.07916853774442,
                9.8414749350487
              ],
              [
                106.07935106104728,
                9.841398467238928
              ],
              [
                106.07914057565296,
                9.840817848527674
              ],
              [
                106.07890703396224,
                9.840300926442792
              ],
              [
                106.07890113448201,
                9.84028786848564
              ],
              [
                106.07873917593926,
                9.84034090494566
              ],
              [
                106.07873268397383,
                9.840329885752379
              ],
              [
                106.07862337354209,
                9.84011896000995
              ],
              [
                106.07857480111154,
                9.84002510469972
              ],
              [
                106.07849861220461,
                9.839777957251851
              ],
              [
                106.07824997826633,
                9.839816084670275
              ],
              [
                106.07807571175732,
                9.839840522868691
              ],
              [
                106.07782787336592,
                9.83986436346343
              ],
              [
                106.0777005008004,
                9.839856353663274
              ],
              [
                106.07761256815006,
                9.839880734466616
              ],
              [
                106.07731393371557,
                9.839947516967827
              ],
              [
                106.07712170423972,
                9.84000177307484
              ],
              [
                106.07704593267114,
                9.840015331862011
              ],
              [
                106.07685405777968,
                9.840069436833339
              ],
              [
                106.07649240361233,
                9.840190410736081
              ],
              [
                106.07621858198439,
                9.840266552863232
              ],
              [
                106.0756927518589,
                9.840380554863865
              ],
              [
                106.07537248586961,
                9.840426464412525
              ],
              [
                106.07538275499458,
                9.840309114459624
              ],
              [
                106.07549211434846,
                9.839744397311465
              ],
              [
                106.07533407826052,
                9.839733089337924
              ],
              [
                106.0752752467544,
                9.83971601111205
              ],
              [
                106.07518697019158,
                9.83969979669609
              ],
              [
                106.07509841075512,
                9.839678157991953
              ],
              [
                106.07493139205425,
                9.839623742602779
              ],
              [
                106.07463743178148,
                9.83954684943957
              ],
              [
                106.0745214827629,
                9.839502111557817
              ],
              [
                106.07436553664807,
                9.83947163635571
              ],
              [
                106.07435939919398,
                9.839454649245104
              ],
              [
                106.07399062292185,
                9.83934280259294
              ],
              [
                106.07340352954402,
                9.839139466881116
              ],
              [
                106.0734067137261,
                9.839082772866663
              ],
              [
                106.0734415599298,
                9.838936335979195
              ],
              [
                106.07306333867436,
                9.838845027915717
              ],
              [
                106.07285146265903,
                9.838787975123738
              ],
              [
                106.07264376396292,
                9.838721421808408
              ],
              [
                106.07226030717415,
                9.838607156918737
              ],
              [
                106.07238084574212,
                9.838246749519957
              ],
              [
                106.07247889063119,
                9.837953466237748
              ],
              [
                106.07248772430641,
                9.837948026529656
              ],
              [
                106.07253838675537,
                9.837827330483037
              ],
              [
                106.07262451790263,
                9.837550974475802
              ],
              [
                106.07275727515227,
                9.837033680613532
              ],
              [
                106.07283326895725,
                9.836694143409883
              ],
              [
                106.0728556825088,
                9.836580728182183
              ],
              [
                106.07290315501398,
                9.83640777907987
              ],
              [
                106.07298533759156,
                9.8361152458508
              ],
              [
                106.07302801408503,
                9.835963099732034
              ],
              [
                106.0730906994528,
                9.835807616512104
              ],
              [
                106.07317921450306,
                9.835727138117116
              ],
              [
                106.07273262104617,
                9.835316651539873
              ],
              [
                106.07250611776874,
                9.835110821420928
              ],
              [
                106.07214728254424,
                9.83491011020151
              ],
              [
                106.07176821286264,
                9.83474665265043
              ],
              [
                106.07139827300065,
                9.834590773877304
              ],
              [
                106.07143566397879,
                9.834545594852123
              ],
              [
                106.07147996913312,
                9.834492086187849
              ],
              [
                106.07153705791767,
                9.834450580777798
              ],
              [
                106.07148373540629,
                9.834402571434268
              ],
              [
                106.07203866635722,
                9.833880133862149
              ],
              [
                106.0726445990262,
                9.8332765995069
              ],
              [
                106.07296361277949,
                9.83297679385006
              ],
              [
                106.07315847936695,
                9.83279364961393
              ],
              [
                106.07325684876625,
                9.832689870183835
              ],
              [
                106.07348773758072,
                9.832514168956841
              ],
              [
                106.07379155157234,
                9.832268254598642
              ],
              [
                106.07837285031671,
                9.828668221920662
              ],
              [
                106.07832457686352,
                9.828254317458844
              ],
              [
                106.09216004828217,
                9.815770994729307
              ],
              [
                106.0928159570689,
                9.816075519375788
              ],
              [
                106.09498909825575,
                9.817591408322523
              ],
              [
                106.09961805967976,
                9.822406766346601
              ],
              [
                106.10176148818626,
                9.824489770111176
              ],
              [
                106.08585489884163,
                9.838278096664265
              ]
            ]
          ]
        ]
      }
    }
  ]
}