{
  "type": "FeatureCollection",
  "name": "Ấp Chợ",
  "crs": {
    "type": "name",
    "properties": {
      "name": "urn:ogc:def:crs:OGC:1.3:CRS84"
    }
  },
  "features": [
    {
      "type": "Feature",
      "properties": {
        "Layer": "4- AP CH",
        "PaperSpace": null,
        "SubClasses": "AcDbEntity:AcDbHatch",
        "Linetype": "Continuou",
        "EntityHandle": "397",
        "Text": "ANSI31",
        "ten": "Ấp Chợ",
        "ma": "3005004",
        "loai": "Ấp",
        "dien_tich_ha": "889.237",
        "dan_so": "4760",
        "so_ho": "1091",
        "sap_nhap_tu": [
          "Ấp Chợ"
        ],
        "audio": "audio/Ap Cho.mp3",
        "dien_tich_km2": "8.89",
        "mat_do_km2": "535.43"
      },
      "geometry": {
        "type": "MultiPolygon",
        "coordinates": [
          [
            [
              [
                106.12746779746901,
                9.811967014303539
              ],
              [
                106.12743765560471,
                9.812719680600836
              ],
              [
                106.12748068195823,
                9.813108294945282
              ],
              [
                106.12819144499348,
                9.813245028800107
              ],
              [
                106.1286275980167,
                9.813390911591222
              ],
              [
                106.12923374969198,
                9.813698149371932
              ],
              [
                106.13039836693451,
                9.814718054543693
              ],
              [
                106.13078244454552,
                9.814920960466122
              ],
              [
                106.1311725443981,
                9.815258937871127
              ],
              [
                106.13129028998706,
                9.815571343128013
              ],
              [
                106.13114329925509,
                9.816696038710775
              ],
              [
                106.13121815818073,
                9.81679959379981
              ],
              [
                106.13141793101221,
                9.816904626145513
              ],
              [
                106.13170560373898,
                9.81705295828368
              ],
              [
                106.13200284074767,
                9.81721283982782
              ],
              [
                106.13216344304597,
                9.817226860504974
              ],
              [
                106.13275037342018,
                9.817521484964145
              ],
              [
                106.13761704719822,
                9.820907918676262
              ],
              [
                106.1377551660499,
                9.821016321377726
              ],
              [
                106.13790944356356,
                9.821509370196589
              ],
              [
                106.13890116996558,
                9.8226895564564
              ],
              [
                106.13949494856982,
                9.823373173123866
              ],
              [
                106.13976298496783,
                9.823714633652493
              ],
              [
                106.13982589606087,
                9.823808352060023
              ],
              [
                106.14010797645517,
                9.824128556158938
              ],
              [
                106.14055982045063,
                9.824662287288975
              ],
              [
                106.14062068873592,
                9.824726873597971
              ],
              [
                106.14074836910518,
                9.824907036274299
              ],
              [
                106.14072163885847,
                9.82489387319792
              ],
              [
                106.1411502788274,
                9.825378028158605
              ],
              [
                106.14198459596358,
                9.82642538791704
              ],
              [
                106.1423511969519,
                9.826883130122178
              ],
              [
                106.14293095520243,
                9.827574163597218
              ],
              [
                106.14314116674339,
                9.827900411972294
              ],
              [
                106.14143146624646,
                9.828983963150632
              ],
              [
                106.13732472667856,
                9.831531099537136
              ],
              [
                106.13725506764965,
                9.831574177561778
              ],
              [
                106.13342680036735,
                9.833943171530008
              ],
              [
                106.13085743905177,
                9.83551584996045
              ],
              [
                106.12869273072842,
                9.836840745800997
              ],
              [
                106.12818569908409,
                9.837151086380423
              ],
              [
                106.12747952218083,
                9.837587743222656
              ],
              [
                106.12691885884688,
                9.837934256925658
              ],
              [
                106.12649615354451,
                9.838196157447063
              ],
              [
                106.12584606453241,
                9.838597355114947
              ],
              [
                106.12487134061443,
                9.839200414476737
              ],
              [
                106.12368688751786,
                9.83992826859941
              ],
              [
                106.1233405880103,
                9.840148072130349
              ],
              [
                106.12328740253378,
                9.84017827823618
              ],
              [
                106.12297120124066,
                9.840356525661825
              ],
              [
                106.12291819735256,
                9.84038636972054
              ],
              [
                106.12288949475665,
                9.840394559923663
              ],
              [
                106.12279251492426,
                9.840455497176213
              ],
              [
                106.12273569313517,
                9.840491315599396
              ],
              [
                106.12269206576723,
                9.840513818774694
              ],
              [
                106.12211580126456,
                9.840810987476807
              ],
              [
                106.1220550836517,
                9.840859923065938
              ],
              [
                106.12200625741507,
                9.840881260338412
              ],
              [
                106.12181341173772,
                9.840965429447921
              ],
              [
                106.12175802661926,
                9.84098958160338
              ],
              [
                106.12169854231666,
                9.841015549580971
              ],
              [
                106.12161546460933,
                9.841051777784127
              ],
              [
                106.1215792093483,
                9.841067667005444
              ],
              [
                106.12141287169251,
                9.841140214086133
              ],
              [
                106.1213899161207,
                9.841150292304853
              ],
              [
                106.12131950038547,
                9.841180981872496
              ],
              [
                106.1211883249114,
                9.841238184150008
              ],
              [
                106.12081948935906,
                9.841352693777335
              ],
              [
                106.12079051463392,
                9.84136169804031
              ],
              [
                106.12060245196122,
                9.841419999153578
              ],
              [
                106.12055498090557,
                9.841434823892252
              ],
              [
                106.12044609748786,
                9.841468477184872
              ],
              [
                106.12040427546417,
                9.84148148324141
              ],
              [
                106.1202980333574,
                9.841513775421223
              ],
              [
                106.12005494863067,
                9.841595594591128
              ],
              [
                106.11967009252837,
                9.841693658915178
              ],
              [
                106.11928015895373,
                9.84181871173685
              ],
              [
                106.11863606580809,
                9.842070339750352
              ],
              [
                106.11851058107706,
                9.842099592520823
              ],
              [
                106.11751091086411,
                9.84234156184456
              ],
              [
                106.11608691784338,
                9.842719381589786
              ],
              [
                106.11607097072773,
                9.84272338890689
              ],
              [
                106.11599387919806,
                9.842743511075957
              ],
              [
                106.11560588425053,
                9.84285253484478
              ],
              [
                106.11549471637636,
                9.84288393039348
              ],
              [
                106.11538035891815,
                9.842916055032443
              ],
              [
                106.11503427967394,
                9.843013428758265
              ],
              [
                106.11434174455097,
                9.843152751710909
              ],
              [
                106.11420752596491,
                9.843192416487655
              ],
              [
                106.11414419832116,
                9.843211247422463
              ],
              [
                106.11389562510001,
                9.843284754147552
              ],
              [
                106.11381616907231,
                9.843308225471286
              ],
              [
                106.1129125394398,
                9.843575865682446
              ],
              [
                106.10986121178789,
                9.844426945128884
              ],
              [
                106.10989857877584,
                9.844469824643273
              ],
              [
                106.10985336940037,
                9.844484755987564
              ],
              [
                106.10967472718652,
                9.844329284495888
              ],
              [
                106.10928169568132,
                9.844073856665045
              ],
              [
                106.10907607488653,
                9.843952352191618
              ],
              [
                106.10875762219005,
                9.843748776079144
              ],
              [
                106.10802128876936,
                9.84330997682332
              ],
              [
                106.10761722404949,
                9.843101942592135
              ],
              [
                106.10710253776155,
                9.842823494907435
              ],
              [
                106.10642013909643,
                9.842462891722642
              ],
              [
                106.1059156951029,
                9.84225078608991
              ],
              [
                106.10576523516742,
                9.842080990971986
              ],
              [
                106.10513446883232,
                9.841636480558392
              ],
              [
                106.10534820978137,
                9.841462687619808
              ],
              [
                106.10567821751776,
                9.841255685839732
              ],
              [
                106.10685472322838,
                9.840612916272073
              ],
              [
                106.10799340151067,
                9.83992627070213
              ],
              [
                106.1089237894845,
                9.839403642392858
              ],
              [
                106.10919713623022,
                9.839231107890518
              ],
              [
                106.10955488339286,
                9.838982541611575
              ],
              [
                106.11061289657549,
                9.838360406511187
              ],
              [
                106.11055862213252,
                9.838244054027268
              ],
              [
                106.11038344544309,
                9.83796906615233
              ],
              [
                106.11016014759582,
                9.837651761838409
              ],
              [
                106.10991431352662,
                9.837324100634236
              ],
              [
                106.10963199652402,
                9.836937104376672
              ],
              [
                106.10919299897091,
                9.836168580626257
              ],
              [
                106.10899389539988,
                9.835720134483882
              ],
              [
                106.10880332356055,
                9.835250787663817
              ],
              [
                106.10873342489087,
                9.835064755325014
              ],
              [
                106.10856025002519,
                9.834636424011904
              ],
              [
                106.10844585483866,
                9.834296048059757
              ],
              [
                106.10841315166483,
                9.834060312540068
              ],
              [
                106.10837200270991,
                9.833892129930122
              ],
              [
                106.10831020732529,
                9.833500757340332
              ],
              [
                106.1082928871853,
                9.833102433426925
              ],
              [
                106.10831273094801,
                9.832886674813706
              ],
              [
                106.10822651267931,
                9.832101059538324
              ],
              [
                106.10813271797127,
                9.83185838164982
              ],
              [
                106.10809591639358,
                9.83167436905109
              ],
              [
                106.1080800851315,
                9.831691394959739
              ],
              [
                106.10799159367569,
                9.831756560227253
              ],
              [
                106.10781847475664,
                9.831457065253385
              ],
              [
                106.10767768885421,
                9.831141057108187
              ],
              [
                106.10758638265537,
                9.830912840461558
              ],
              [
                106.10751856429175,
                9.830716858677942
              ],
              [
                106.1074522891747,
                9.830517257623578
              ],
              [
                106.10737014358074,
                9.830288165529213
              ],
              [
                106.10728799810826,
                9.830059073404975
              ],
              [
                106.1072704332266,
                9.830025290850756
              ],
              [
                106.10727800638892,
                9.829978986320084
              ],
              [
                106.10726695355586,
                9.829855597208988
              ],
              [
                106.10727623432211,
                9.829848861143493
              ],
              [
                106.10726979517392,
                9.82984260390198
              ],
              [
                106.10730504704242,
                9.829810138602793
              ],
              [
                106.10743762762242,
                9.82977671939417
              ],
              [
                106.10806998216849,
                9.829654883485917
              ],
              [
                106.1086591558896,
                9.82954985031957
              ],
              [
                106.10898316323963,
                9.829508672313477
              ],
              [
                106.10915875248777,
                9.829414689430838
              ],
              [
                106.10966555578119,
                9.82913313788971
              ],
              [
                106.11043199420376,
                9.828904460375854
              ],
              [
                106.11075123677263,
                9.828751178517974
              ],
              [
                106.11108243892188,
                9.828458549986452
              ],
              [
                106.11127515427648,
                9.828259205237366
              ],
              [
                106.11163003183655,
                9.827853337714448
              ],
              [
                106.11153536836004,
                9.827684167255102
              ],
              [
                106.11151463045412,
                9.82761051900663
              ],
              [
                106.1115400119949,
                9.827482630668191
              ],
              [
                106.11158603968295,
                9.827328847203695
              ],
              [
                106.11160004480091,
                9.827260832120077
              ],
              [
                106.11159495566557,
                9.827219884712084
              ],
              [
                106.11155829754415,
                9.827114621057754
              ],
              [
                106.11152015530976,
                9.827045072793366
              ],
              [
                106.11152424177274,
                9.826986840123208
              ],
              [
                106.11166036924146,
                9.826800888004566
              ],
              [
                106.11173675094251,
                9.826718958124308
              ],
              [
                106.11172953018472,
                9.82663530916168
              ],
              [
                106.11162238040217,
                9.826417881292315
              ],
              [
                106.1116519589479,
                9.82634161057534
              ],
              [
                106.11176761181609,
                9.826275039181896
              ],
              [
                106.11178036685985,
                9.82622131143672
              ],
              [
                106.1117690200082,
                9.826049187622242
              ],
              [
                106.11190923893125,
                9.82585762248869
              ],
              [
                106.11227040921428,
                9.825851454199238
              ],
              [
                106.11277249253594,
                9.825486366341304
              ],
              [
                106.11315844814945,
                9.825474727541165
              ],
              [
                106.11328511721774,
                9.825400721927778
              ],
              [
                106.11330991356469,
                9.82535149291654
              ],
              [
                106.1133485396613,
                9.825188771890335
              ],
              [
                106.11350512700983,
                9.824876928655048
              ],
              [
                106.11379410916967,
                9.824630393953358
              ],
              [
                106.11394530629128,
                9.824460868663785
              ],
              [
                106.11437507145115,
                9.82363833512775
              ],
              [
                106.11453392838251,
                9.823421058222726
              ],
              [
                106.11491993289766,
                9.822943615357817
              ],
              [
                106.11523783979277,
                9.82261439054597
              ],
              [
                106.11543637478034,
                9.822311601921506
              ],
              [
                106.11563100893406,
                9.82211794744626
              ],
              [
                106.11635350626243,
                9.821702456148492
              ],
              [
                106.11647955600684,
                9.821689026539506
              ],
              [
                106.11659248496471,
                9.821728240492526
              ],
              [
                106.11682496758723,
                9.821839656547178
              ],
              [
                106.11707720128386,
                9.821885216593516
              ],
              [
                106.11713688660083,
                9.821871907679258
              ],
              [
                106.1173156747333,
                9.821687503196149
              ],
              [
                106.11741480704382,
                9.821463824308664
              ],
              [
                106.11762868985869,
                9.821131080223248
              ],
              [
                106.11800546013984,
                9.820348058936647
              ],
              [
                106.11804488218219,
                9.820124488859323
              ],
              [
                106.11820618042843,
                9.819603874164445
              ],
              [
                106.11826501728353,
                9.819280996395701
              ],
              [
                106.11823976723032,
                9.819085119971865
              ],
              [
                106.11816021164647,
                9.81870643944695
              ],
              [
                106.11806184236848,
                9.81855454619685
              ],
              [
                106.11789504016775,
                9.818171775410812
              ],
              [
                106.11779343889754,
                9.817800729556032
              ],
              [
                106.11779738179008,
                9.81771483107632
              ],
              [
                106.11784559147283,
                9.817609232478171
              ],
              [
                106.11784350041195,
                9.817268112256242
              ],
              [
                106.11774124720706,
                9.816496000396324
              ],
              [
                106.11773710969757,
                9.816427746963878
              ],
              [
                106.11782784659208,
                9.816200195594112
              ],
              [
                106.1178927104316,
                9.81612883272758
              ],
              [
                106.11798636945862,
                9.81595326282931
              ],
              [
                106.11827474136041,
                9.815531055650025
              ],
              [
                106.11852156751921,
                9.81521958825107
              ],
              [
                106.11874237958006,
                9.814988273128332
              ],
              [
                106.1186038000372,
                9.814781663778678
              ],
              [
                106.11869761377847,
                9.814640721184071
              ],
              [
                106.11891006383827,
                9.814275611656885
              ],
              [
                106.11899912570425,
                9.81417762331419
              ],
              [
                106.11902912279271,
                9.814033632798917
              ],
              [
                106.11830646300879,
                9.814006924532066
              ],
              [
                106.11825857364303,
                9.813990014476877
              ],
              [
                106.118234552025,
                9.813964652562458
              ],
              [
                106.1182361644603,
                9.813900185939199
              ],
              [
                106.11827010009357,
                9.813766133593477
              ],
              [
                106.11826144004272,
                9.813716965322769
              ],
              [
                106.11820095306982,
                9.813592126435198
              ],
              [
                106.11809981201482,
                9.813468537043756
              ],
              [
                106.11793704848968,
                9.813345059991258
              ],
              [
                106.11777225451543,
                9.813060472535591
              ],
              [
                106.11758038440232,
                9.812527831246769
              ],
              [
                106.1174612707492,
                9.812495151136563
              ],
              [
                106.11742180904479,
                9.812451102016405
              ],
              [
                106.11739605250646,
                9.812374841281345
              ],
              [
                106.11740273225384,
                9.812290022734253
              ],
              [
                106.11745080880438,
                9.812211276780166
              ],
              [
                106.1175363520966,
                9.812182279519758
              ],
              [
                106.11757222402669,
                9.812158435821408
              ],
              [
                106.11762854671382,
                9.812102368209452
              ],
              [
                106.11773933443023,
                9.811873243329694
              ],
              [
                106.11774954406398,
                9.811824040639577
              ],
              [
                106.1177510277596,
                9.811739231559468
              ],
              [
                106.1178536128333,
                9.81146184163767
              ],
              [
                106.11789459281256,
                9.811439796836831
              ],
              [
                106.1179921622386,
                9.811456525977578
              ],
              [
                106.11811543816714,
                9.81152248270069
              ],
              [
                106.11821466098615,
                9.811496805574855
              ],
              [
                106.11825052977485,
                9.811471334402361
              ],
              [
                106.11831029725481,
                9.811405043859407
              ],
              [
                106.11835955973356,
                9.811228650769483
              ],
              [
                106.11845007533178,
                9.811128399642866
              ],
              [
                106.11849690436893,
                9.811114481172773
              ],
              [
                106.11863726090574,
                9.81114975690515
              ],
              [
                106.1188323432605,
                9.81115283644113
              ],
              [
                106.11916229125505,
                9.810885066724827
              ],
              [
                106.1193828517772,
                9.810425730359967
              ],
              [
                106.11926543299737,
                9.810319171067615
              ],
              [
                106.11916591113015,
                9.810134460532794
              ],
              [
                106.11908851845897,
                9.809937865587244
              ],
              [
                106.11906656925076,
                9.809741474055516
              ],
              [
                106.11878793846306,
                9.809427496704933
              ],
              [
                106.11874502870386,
                9.809342768653536
              ],
              [
                106.11872412324064,
                9.809277167761055
              ],
              [
                106.11872224020901,
                9.809146616396442
              ],
              [
                106.1187665729764,
                9.809002125648583
              ],
              [
                106.11872010248494,
                9.808927913879916
              ],
              [
                106.11871489071434,
                9.808870240590384
              ],
              [
                106.11888274502158,
                9.80859380624403
              ],
              [
                106.11887671587759,
                9.808489130245212
              ],
              [
                106.11880973786471,
                9.808353634628435
              ],
              [
                106.11885210614173,
                9.808146604421875
              ],
              [
                106.11892203025305,
                9.808052177156664
              ],
              [
                106.11893907331849,
                9.808001334548539
              ],
              [
                106.11884519142427,
                9.807171072443634
              ],
              [
                106.11881223841893,
                9.806704245415164
              ],
              [
                106.11854112614958,
                9.806647509308933
              ],
              [
                106.11840227140392,
                9.806608824574727
              ],
              [
                106.11855873623745,
                9.806194236477866
              ],
              [
                106.11939222638104,
                9.806234612137875
              ],
              [
                106.11946886527348,
                9.806220961736292
              ],
              [
                106.11969275458546,
                9.806189115073431
              ],
              [
                106.12003749360487,
                9.805701426423413
              ],
              [
                106.1214149711031,
                9.805713173696256
              ],
              [
                106.12223776006364,
                9.80586254510796
              ],
              [
                106.12256572660782,
                9.805785329390517
              ],
              [
                106.12267252232192,
                9.805753094034651
              ],
              [
                106.12265840877772,
                9.805716842340114
              ],
              [
                106.12316298256303,
                9.805276443311152
              ],
              [
                106.12396572922383,
                9.804910085911665
              ],
              [
                106.12475589462998,
                9.80441522225277
              ],
              [
                106.12515773804384,
                9.804141105233779
              ],
              [
                106.1254753241418,
                9.803677330547567
              ],
              [
                106.12569020080778,
                9.803556842297297
              ],
              [
                106.12597877218487,
                9.803443894090345
              ],
              [
                106.1262921298755,
                9.80340345792753
              ],
              [
                106.12648770801447,
                9.803473496909879
              ],
              [
                106.12674514587887,
                9.803621355821534
              ],
              [
                106.1270408195592,
                9.803907560077901
              ],
              [
                106.12737576728485,
                9.8043708601348
              ],
              [
                106.12757226954264,
                9.804545025697234
              ],
              [
                106.12772475022803,
                9.804890327734388
              ],
              [
                106.12789088038818,
                9.804970257399342
              ],
              [
                106.12822189698191,
                9.805254006113762
              ],
              [
                106.12830050937036,
                9.805435228909143
              ],
              [
                106.12825599164466,
                9.80591250143235
              ],
              [
                106.12827322441278,
                9.806069873128969
              ],
              [
                106.12822757582707,
                9.80627911930756
              ],
              [
                106.12817371298263,
                9.806590294157486
              ],
              [
                106.12805114205639,
                9.806846321362405
              ],
              [
                106.12785525548621,
                9.807055651429506
              ],
              [
                106.12777996493227,
                9.807187822639
              ],
              [
                106.12753423668988,
                9.807437617472909
              ],
              [
                106.1277518133617,
                9.807554038954628
              ],
              [
                106.12787855781652,
                9.8077452594736
              ],
              [
                106.12804084531841,
                9.808193176365435
              ],
              [
                106.12821463674715,
                9.808424370569385
              ],
              [
                106.12834027840843,
                9.80879115926724
              ],
              [
                106.1283036391956,
                9.809196927476524
              ],
              [
                106.12812496609992,
                9.809515110158513
              ],
              [
                106.12795910255102,
                9.809780156735714
              ],
              [
                106.1280194669242,
                9.809781778160763
              ],
              [
                106.12798527160953,
                9.810013492728707
              ],
              [
                106.12780045410958,
                9.810371235989171
              ],
              [
                106.12768654313396,
                9.810516124338474
              ],
              [
                106.12764278697574,
                9.810651897204897
              ],
              [
                106.12742424637966,
                9.810931715252698
              ],
              [
                106.12726782774676,
                9.811054773630445
              ],
              [
                106.12751869656746,
                9.811648132994787
              ],
              [
                106.12746779746901,
                9.811967014303539
              ]
            ]
          ]
        ]
      }
    }
  ]
}