{
  "type": "FeatureCollection",
  "name": "Ấp IV",
  "crs": {
    "type": "name",
    "properties": {
      "name": "urn:ogc:def:crs:OGC:1.3:CRS84"
    }
  },
  "features": [
    {
      "type": "Feature",
      "properties": {
        "Layer": "9- AP I",
        "PaperSpace": null,
        "SubClasses": "AcDbEntity:AcDbHatch",
        "Linetype": "Continuou",
        "EntityHandle": "3AC",
        "Text": "ANSI31",
        "ten": "Ấp IV",
        "ma": "3005015",
        "loai": "Ấp",
        "dien_tich_ha": "552.3",
        "dan_so": "3008",
        "so_ho": "715",
        "sap_nhap_tu": [
          "Ấp IV"
        ],
        "audio": "audio/Ap 4.mp3",
        "dien_tich_km2": "5.52",
        "mat_do_km2": "544.93"
      },
      "geometry": {
        "type": "MultiPolygon",
        "coordinates": [
          [
            [
              [
                106.11348253534233,
                9.820580504475146
              ],
              [
                106.11405525534539,
                9.821252131158785
              ],
              [
                106.11545870576809,
                9.822277544564477
              ],
              [
                106.11523783979277,
                9.82261439054597
              ],
              [
                106.11491993289766,
                9.822943615357817
              ],
              [
                106.11453392838251,
                9.823421058222726
              ],
              [
                106.11437507145115,
                9.82363833512775
              ],
              [
                106.11394530629128,
                9.824460868663785
              ],
              [
                106.11379410916967,
                9.824630393953358
              ],
              [
                106.11350512700983,
                9.824876928655048
              ],
              [
                106.1133485396613,
                9.825188771890335
              ],
              [
                106.11330991356469,
                9.82535149291654
              ],
              [
                106.11328511721774,
                9.825400721927778
              ],
              [
                106.11315844814945,
                9.825474727541165
              ],
              [
                106.11277249253594,
                9.825486366341304
              ],
              [
                106.11227040921428,
                9.825851454199238
              ],
              [
                106.11190923893125,
                9.82585762248869
              ],
              [
                106.1117690200082,
                9.826049187622242
              ],
              [
                106.11178036685985,
                9.82622131143672
              ],
              [
                106.11176761181609,
                9.826275039181896
              ],
              [
                106.11159963598503,
                9.826371728376591
              ],
              [
                106.11172953018472,
                9.82663530916168
              ],
              [
                106.11173539829178,
                9.826703288328538
              ],
              [
                106.11171313901656,
                9.82674428516853
              ],
              [
                106.11166036924146,
                9.826800888004566
              ],
              [
                106.11150364737907,
                9.827014972345124
              ],
              [
                106.11155829754415,
                9.827114621057754
              ],
              [
                106.11159495566557,
                9.827219884712084
              ],
              [
                106.11160004480091,
                9.827260832120077
              ],
              [
                106.11158603968295,
                9.827328847203695
              ],
              [
                106.1115400119949,
                9.827482630668191
              ],
              [
                106.11150927011796,
                9.827637527777043
              ],
              [
                106.11163003183655,
                9.827853337714448
              ],
              [
                106.11127515427648,
                9.828259205237366
              ],
              [
                106.11108243892188,
                9.828458549986452
              ],
              [
                106.11075123677263,
                9.828751178517974
              ],
              [
                106.11043199420376,
                9.828904460375854
              ],
              [
                106.10966555578119,
                9.82913313788971
              ],
              [
                106.10915875248777,
                9.829414689430838
              ],
              [
                106.10898316323963,
                9.829508672313477
              ],
              [
                106.1086591558896,
                9.82954985031957
              ],
              [
                106.10806998216849,
                9.829654883485917
              ],
              [
                106.10743762762242,
                9.82977671939417
              ],
              [
                106.10725052801615,
                9.829823881041442
              ],
              [
                106.09961805967976,
                9.822406766346601
              ],
              [
                106.09498909825575,
                9.817591408322523
              ],
              [
                106.0928159570689,
                9.816075519375788
              ],
              [
                106.08233357083613,
                9.81120854366694
              ],
              [
                106.08114633442689,
                9.810445165253542
              ],
              [
                106.08116609916536,
                9.810413937737772
              ],
              [
                106.08120565021423,
                9.810355101804031
              ],
              [
                106.082815090901,
                9.807933262215954
              ],
              [
                106.08330080956293,
                9.80722305064966
              ],
              [
                106.08333190666946,
                9.80717815256385
              ],
              [
                106.08336005007646,
                9.807112283862171
              ],
              [
                106.0834575984711,
                9.806962031311985
              ],
              [
                106.08368033914549,
                9.806622962841596
              ],
              [
                106.08392998914762,
                9.80624243899478
              ],
              [
                106.08393863363938,
                9.806233654099293
              ],
              [
                106.0840882888172,
                9.806011795393832
              ],
              [
                106.08420300096626,
                9.805824896042463
              ],
              [
                106.08466013642119,
                9.805140770807423
              ],
              [
                106.08511453093628,
                9.80445411821416
              ],
              [
                106.08591993010354,
                9.803228633582501
              ],
              [
                106.08589556716902,
                9.803214752145143
              ],
              [
                106.08603761385591,
                9.802970121891871
              ],
              [
                106.08613550895285,
                9.802862904402776
              ],
              [
                106.0871191999204,
                9.801326271157635
              ],
              [
                106.0871542193058,
                9.801283445464808
              ],
              [
                106.08714161321868,
                9.80126827798911
              ],
              [
                106.0874047917076,
                9.800861689718738
              ],
              [
                106.08748634791043,
                9.80074247531738
              ],
              [
                106.08774203913221,
                9.80032920926277
              ],
              [
                106.08779883042394,
                9.800278479914926
              ],
              [
                106.08794249646908,
                9.800074893417133
              ],
              [
                106.08799425625499,
                9.799962240233489
              ],
              [
                106.08822600474187,
                9.799469410522848
              ],
              [
                106.08819159896194,
                9.799438076575644
              ],
              [
                106.08819848725892,
                9.799314894820789
              ],
              [
                106.0883915615884,
                9.799268268927673
              ],
              [
                106.08879100874712,
                9.799066046760101
              ],
              [
                106.08889089429593,
                9.79905484312017
              ],
              [
                106.08900753395226,
                9.799084928853878
              ],
              [
                106.08904367951304,
                9.799112351493536
              ],
              [
                106.08906752643912,
                9.799143864037775
              ],
              [
                106.08930667498953,
                9.799637100672237
              ],
              [
                106.08964974801567,
                9.800082870807115
              ],
              [
                106.09010315711276,
                9.80065686024367
              ],
              [
                106.0907912430593,
                9.80161475708794
              ],
              [
                106.09112430699851,
                9.80181687454583
              ],
              [
                106.09187218931763,
                9.802238335823285
              ],
              [
                106.09420479148535,
                9.802854447192491
              ],
              [
                106.09457618434118,
                9.80314409946592
              ],
              [
                106.0953904688336,
                9.8039316010809
              ],
              [
                106.09622708321704,
                9.805007316880621
              ],
              [
                106.09711797074897,
                9.805765756109553
              ],
              [
                106.09937651476778,
                9.807668838124487
              ],
              [
                106.10007042977792,
                9.808475950007427
              ],
              [
                106.10043904295839,
                9.808961767160318
              ],
              [
                106.10159801578645,
                9.809835131287205
              ],
              [
                106.10203895351535,
                9.81030191968238
              ],
              [
                106.10301369103277,
                9.811937001841283
              ],
              [
                106.10436192610771,
                9.81263052780101
              ],
              [
                106.11348253534233,
                9.820580504475146
              ]
            ]
          ]
        ]
      }
    }
  ]
}