{
  "type": "FeatureCollection",
  "name": "Ấp Cây Gòn",
  "crs": {
    "type": "name",
    "properties": {
      "name": "urn:ogc:def:crs:OGC:1.3:CRS84"
    }
  },
  "features": [
    {
      "type": "Feature",
      "properties": {
        "Layer": "1-CAY GO",
        "PaperSpace": null,
        "SubClasses": "AcDbEntity:AcDbHatch",
        "Linetype": "Continuou",
        "EntityHandle": "55B",
        "Text": "ANSI31",
        "ten": "Ấp Cây Gòn",
        "ma": "3005003",
        "loai": "Ấp",
        "dien_tich_ha": "522.527",
        "dan_so": "2729",
        "so_ho": "656",
        "sap_nhap_tu": [
          "Ấp Cây Gòn",
          "Ấp Cả Chương"
        ],
        "audio": "audio/Ap Cay Gon.mp3",
        "dien_tich_km2": "5.23",
        "mat_do_km2": "521.8"
      },
      "geometry": {
        "type": "MultiPolygon",
        "coordinates": [
          [
            [
              [
                106.16567488757919,
                9.855594077296788
              ],
              [
                106.16683516060506,
                9.856067620398873
              ],
              [
                106.16759736450801,
                9.856605797930705
              ],
              [
                106.16788787167727,
                9.85693222728132
              ],
              [
                106.16813369957228,
                9.857440394403541
              ],
              [
                106.16822633076595,
                9.857897609138798
              ],
              [
                106.16816569120172,
                9.858430036841952
              ],
              [
                106.16800039658624,
                9.85885069286152
              ],
              [
                106.16784978316875,
                9.859129397770564
              ],
              [
                106.16776378356572,
                9.859537470129743
              ],
              [
                106.16786100924969,
                9.8601427352641
              ],
              [
                106.16770885322491,
                9.860411238575537
              ],
              [
                106.16724311034227,
                9.86101463982279
              ],
              [
                106.16674538406363,
                9.861446754732103
              ],
              [
                106.16656013548231,
                9.861526340553807
              ],
              [
                106.16632109615048,
                9.86160922611585
              ],
              [
                106.16611494435432,
                9.861633918571066
              ],
              [
                106.16589032349206,
                9.86171020739573
              ],
              [
                106.1651557308743,
                9.861829516870433
              ],
              [
                106.16466177651701,
                9.861692730826205
              ],
              [
                106.16435989831874,
                9.861543895017148
              ],
              [
                106.16373078719424,
                9.861005696451437
              ],
              [
                106.16352859041797,
                9.860796896897687
              ],
              [
                106.16318262527903,
                9.86071084309786
              ],
              [
                106.1631085873607,
                9.86072479044165
              ],
              [
                106.16230896136214,
                9.860821428500445
              ],
              [
                106.16193406033629,
                9.860953845540003
              ],
              [
                106.161539960186,
                9.86110518385656
              ],
              [
                106.16143895583582,
                9.861133951260273
              ],
              [
                106.16051829985065,
                9.860891058647908
              ],
              [
                106.1598784370497,
                9.860707218069804
              ],
              [
                106.15984803183314,
                9.860778625807301
              ],
              [
                106.1593889147148,
                9.861094912657133
              ],
              [
                106.15899637093037,
                9.861211383552897
              ],
              [
                106.15892673003825,
                9.861207384125223
              ],
              [
                106.15848976440839,
                9.86142121063538
              ],
              [
                106.15755560790566,
                9.861833859199479
              ],
              [
                106.15731717135336,
                9.86219151136454
              ],
              [
                106.15696221573783,
                9.86251436079538
              ],
              [
                106.15683690287213,
                9.862728193445497
              ],
              [
                106.15678393684603,
                9.86290978331242
              ],
              [
                106.1565984727228,
                9.863173071816298
              ],
              [
                106.15670099125111,
                9.863353645704267
              ],
              [
                106.15692632112423,
                9.864044563165853
              ],
              [
                106.15685140195049,
                9.86462357070649
              ],
              [
                106.15678659062158,
                9.865376631807624
              ],
              [
                106.15693565834532,
                9.865667916332828
              ],
              [
                106.15696650197158,
                9.866126179085587
              ],
              [
                106.15686195362903,
                9.866902796784384
              ],
              [
                106.1539234703498,
                9.865848043085194
              ],
              [
                106.1538564647622,
                9.865865552354323
              ],
              [
                106.15310168269492,
                9.866023350236752
              ],
              [
                106.1519320040494,
                9.86629647411945
              ],
              [
                106.15135351505802,
                9.866335777452752
              ],
              [
                106.1505393305854,
                9.866194440284083
              ],
              [
                106.15002265792741,
                9.86593439155647
              ],
              [
                106.14876875363767,
                9.865089773226638
              ],
              [
                106.14856494441918,
                9.865005291399262
              ],
              [
                106.14821645029284,
                9.864994821288741
              ],
              [
                106.14765851833079,
                9.864957215477904
              ],
              [
                106.14704087887127,
                9.864862377819689
              ],
              [
                106.14643168462067,
                9.864613454494851
              ],
              [
                106.1463396003324,
                9.864676092032285
              ],
              [
                106.14590634470919,
                9.865113591475312
              ],
              [
                106.14501730387308,
                9.864623814592655
              ],
              [
                106.14347349348449,
                9.86325021144377
              ],
              [
                106.14378582037335,
                9.862825652091983
              ],
              [
                106.14652735155099,
                9.857721137825914
              ],
              [
                106.14664635251964,
                9.857749762922603
              ],
              [
                106.14741761304033,
                9.85795352365805
              ],
              [
                106.14783341395726,
                9.858062931883184
              ],
              [
                106.1478691490475,
                9.858072455451834
              ],
              [
                106.14883158034125,
                9.858312915433968
              ],
              [
                106.14904982161717,
                9.857787009744797
              ],
              [
                106.14920876021671,
                9.857660034013284
              ],
              [
                106.14933816417758,
                9.857282384665833
              ],
              [
                106.14958098500341,
                9.857364210252161
              ],
              [
                106.14998280490818,
                9.857376820389378
              ],
              [
                106.15056712808233,
                9.857479419272066
              ],
              [
                106.15111839003693,
                9.85752267194813
              ],
              [
                106.15219869972664,
                9.857532057421965
              ],
              [
                106.15225651701508,
                9.857260512342297
              ],
              [
                106.15263719511157,
                9.856610783837118
              ],
              [
                106.15303513704879,
                9.855915501946223
              ],
              [
                106.1529038277053,
                9.855592371369863
              ],
              [
                106.15273545029889,
                9.85541548582008
              ],
              [
                106.15280554055958,
                9.855358570315861
              ],
              [
                106.15307622235338,
                9.855169714461635
              ],
              [
                106.15305018855065,
                9.855144358531092
              ],
              [
                106.15309157335844,
                9.855048078054873
              ],
              [
                106.15296620270907,
                9.854904110455799
              ],
              [
                106.15266705174075,
                9.855107953178633
              ],
              [
                106.15238077732198,
                9.854690612481276
              ],
              [
                106.15298278922009,
                9.854292656759554
              ],
              [
                106.15285938272966,
                9.854097431072812
              ],
              [
                106.15275454579877,
                9.85394460618268
              ],
              [
                106.15243318984923,
                9.854162504895147
              ],
              [
                106.15223542740229,
                9.8538886308774
              ],
              [
                106.15253416259729,
                9.853672515409835
              ],
              [
                106.14920470074892,
                9.849430582760952
              ],
              [
                106.14898976992029,
                9.849828525032331
              ],
              [
                106.14887010782192,
                9.849944575336842
              ],
              [
                106.14860327132543,
                9.850094271107476
              ],
              [
                106.14661475760722,
                9.849133211123348
              ],
              [
                106.14678491845189,
                9.848852704851737
              ],
              [
                106.14651448993524,
                9.848709771719927
              ],
              [
                106.14616766379997,
                9.849233254394258
              ],
              [
                106.14584953034284,
                9.849058032421256
              ],
              [
                106.14609523729138,
                9.848675653971336
              ],
              [
                106.14576986269246,
                9.848484612180073
              ],
              [
                106.14498152726935,
                9.849629021966667
              ],
              [
                106.14474651942902,
                9.849457267728505
              ],
              [
                106.14551102190455,
                9.84834745702758
              ],
              [
                106.14522791502702,
                9.848197443335517
              ],
              [
                106.14484156945454,
                9.848758292631477
              ],
              [
                106.14410579881701,
                9.84828763663817
              ],
              [
                106.14394637503548,
                9.848210274950102
              ],
              [
                106.14365384634691,
                9.848087417352286
              ],
              [
                106.14317196731334,
                9.848204698354994
              ],
              [
                106.14278675496057,
                9.848288793564278
              ],
              [
                106.14262230399399,
                9.848487384684118
              ],
              [
                106.14253846829614,
                9.848555535618116
              ],
              [
                106.14240982261185,
                9.848458766009228
              ],
              [
                106.14221120288818,
                9.848337808018847
              ],
              [
                106.14187122137349,
                9.848191712232488
              ],
              [
                106.14156419984194,
                9.84807014611815
              ],
              [
                106.14124418631404,
                9.84797193122654
              ],
              [
                106.14072775340144,
                9.847853112629778
              ],
              [
                106.14025169753334,
                9.847775626363909
              ],
              [
                106.14012352923335,
                9.847831474019713
              ],
              [
                106.13717030922054,
                9.844390009005634
              ],
              [
                106.14056328702796,
                9.844356204788035
              ],
              [
                106.14057691737348,
                9.843697449654103
              ],
              [
                106.1397600566211,
                9.843718316930145
              ],
              [
                106.13995185846828,
                9.84324138122149
              ],
              [
                106.14014290994338,
                9.842870865873643
              ],
              [
                106.13853568289446,
                9.842561051742084
              ],
              [
                106.14383266022809,
                9.837011199395466
              ],
              [
                106.14467523752974,
                9.837678684655659
              ],
              [
                106.14622665100956,
                9.83611273371054
              ],
              [
                106.14530398513254,
                9.835218112436099
              ],
              [
                106.14693023421778,
                9.833434889302588
              ],
              [
                106.1470819662755,
                9.83326398758846
              ],
              [
                106.14775994599944,
                9.832624703864724
              ],
              [
                106.1477628163105,
                9.83262522958328
              ],
              [
                106.14797639364579,
                9.832847193987426
              ],
              [
                106.14841906672797,
                9.833280265659255
              ],
              [
                106.14873367244216,
                9.833493752895631
              ],
              [
                106.14902116650838,
                9.833810958772577
              ],
              [
                106.14910698154483,
                9.833888996597418
              ],
              [
                106.14921397498968,
                9.833987704228553
              ],
              [
                106.14938673174821,
                9.83410892765907
              ],
              [
                106.14960136359738,
                9.834283198853413
              ],
              [
                106.14994040792466,
                9.834532733087187
              ],
              [
                106.15024099266476,
                9.834812512925662
              ],
              [
                106.15030996838436,
                9.834883510934878
              ],
              [
                106.15043346260697,
                9.835101259441796
              ],
              [
                106.15061295400662,
                9.83522278430104
              ],
              [
                106.15073530571172,
                9.835358531331526
              ],
              [
                106.15091487443908,
                9.835572434485965
              ],
              [
                106.15114690537311,
                9.835786824978308
              ],
              [
                106.15160449262635,
                9.836205441547817
              ],
              [
                106.15208640856963,
                9.83660577483263
              ],
              [
                106.15225009151801,
                9.836761567006006
              ],
              [
                106.15263639754889,
                9.837059377093565
              ],
              [
                106.15272570975588,
                9.837120742392933
              ],
              [
                106.1528657214477,
                9.837246917666942
              ],
              [
                106.15297907129545,
                9.837399113168084
              ],
              [
                106.15303010570639,
                9.837503442006865
              ],
              [
                106.15312031459484,
                9.837595043362091
              ],
              [
                106.15328716659016,
                9.837855149335919
              ],
              [
                106.1535651197291,
                9.83809810068256
              ],
              [
                106.15411805136246,
                9.838472830099912
              ],
              [
                106.15432581636128,
                9.839033946114583
              ],
              [
                106.15439154357392,
                9.839060080175468
              ],
              [
                106.15482945575295,
                9.839183744136498
              ],
              [
                106.15539632458801,
                9.839410790204951
              ],
              [
                106.15561883534225,
                9.83957310383778
              ],
              [
                106.15582259021971,
                9.84000202289549
              ],
              [
                106.1558274350524,
                9.84045614226875
              ],
              [
                106.1558784458675,
                9.840533851314412
              ],
              [
                106.15612354070922,
                9.84069069563229
              ],
              [
                106.15628604307815,
                9.840855924824096
              ],
              [
                106.15708509577578,
                9.841190066342024
              ],
              [
                106.15710804968063,
                9.841281675332109
              ],
              [
                106.15724125263023,
                9.841366456818827
              ],
              [
                106.15732259198218,
                9.841460131012603
              ],
              [
                106.15744987796812,
                9.841684248486365
              ],
              [
                106.15747410984136,
                9.841671943132415
              ],
              [
                106.15756459646774,
                9.84176702795512
              ],
              [
                106.15761768812973,
                9.841699439395098
              ],
              [
                106.1576027059763,
                9.841625640619426
              ],
              [
                106.1575134317938,
                9.840804611303732
              ],
              [
                106.15807532601488,
                9.840572148930983
              ],
              [
                106.15820388186687,
                9.840534473140778
              ],
              [
                106.15843144955032,
                9.840489431224135
              ],
              [
                106.15857519203907,
                9.84048135164446
              ],
              [
                106.1587550157038,
                9.84047355081502
              ],
              [
                106.1589333327096,
                9.840472590718317
              ],
              [
                106.15932910931137,
                9.840630910411457
              ],
              [
                106.15955492010426,
                9.840947734933938
              ],
              [
                106.15966068797698,
                9.841067449854942
              ],
              [
                106.15978271471502,
                9.841223480523484
              ],
              [
                106.1598409476112,
                9.841321277963585
              ],
              [
                106.16013249276683,
                9.841253382842263
              ],
              [
                106.16041757258604,
                9.84132333680384
              ],
              [
                106.1605590141451,
                9.841383809203105
              ],
              [
                106.16079724135459,
                9.841573718587734
              ],
              [
                106.16091715011679,
                9.841768510445414
              ],
              [
                106.16104664192339,
                9.842108686449938
              ],
              [
                106.16104130837903,
                9.842271514663967
              ],
              [
                106.16127487879115,
                9.842445837968802
              ],
              [
                106.16151443601044,
                9.842442083647908
              ],
              [
                106.16175770548173,
                9.842500402555693
              ],
              [
                106.16254385834696,
                9.842667832162595
              ],
              [
                106.16222465174081,
                9.843312968375422
              ],
              [
                106.16206094573728,
                9.843507999118637
              ],
              [
                106.16199869309686,
                9.844046362831834
              ],
              [
                106.16199591856531,
                9.844054841338485
              ],
              [
                106.16199747182193,
                9.844099043819353
              ],
              [
                106.16199552463371,
                9.844370768854725
              ],
              [
                106.16199137144457,
                9.844381425404983
              ],
              [
                106.16216235629776,
                9.844388214528962
              ],
              [
                106.16248601589079,
                9.84482638141897
              ],
              [
                106.16265494293305,
                9.845303050926402
              ],
              [
                106.16261862961683,
                9.845478964126961
              ],
              [
                106.16233714716194,
                9.845958594959495
              ],
              [
                106.16191284357467,
                9.84627732343437
              ],
              [
                106.16151656507076,
                9.846313276922551
              ],
              [
                106.16110581604336,
                9.8462623973735
              ],
              [
                106.16054636613252,
                9.845955158327255
              ],
              [
                106.16024812950238,
                9.84599634924443
              ],
              [
                106.16014805817916,
                9.846119429441847
              ],
              [
                106.1599426659137,
                9.846405350346837
              ],
              [
                106.1598440346596,
                9.846655951121722
              ],
              [
                106.16027920652971,
                9.8467209588318
              ],
              [
                106.16073308487519,
                9.846848580969969
              ],
              [
                106.16078990044565,
                9.846782082754833
              ],
              [
                106.16128343071463,
                9.846560320085217
              ],
              [
                106.16187008333938,
                9.846440909651871
              ],
              [
                106.1622676976853,
                9.846451483286067
              ],
              [
                106.16264807024906,
                9.84668608473754
              ],
              [
                106.16288964605288,
                9.846922166233659
              ],
              [
                106.16310608114108,
                9.847366099187878
              ],
              [
                106.16308991266571,
                9.848435330268535
              ],
              [
                106.16297661517955,
                9.848706140609911
              ],
              [
                106.16254704035073,
                9.84913754172527
              ],
              [
                106.16262705192015,
                9.849331221072912
              ],
              [
                106.16281804610149,
                9.849638432157825
              ],
              [
                106.16298554931828,
                9.850257204879567
              ],
              [
                106.16308832720125,
                9.850598165992738
              ],
              [
                106.163201766042,
                9.850937502269552
              ],
              [
                106.16332224319753,
                9.851638930936106
              ],
              [
                106.16355660732629,
                9.851840257129352
              ],
              [
                106.16364472362459,
                9.85202187735861
              ],
              [
                106.16353402260023,
                9.853244518091708
              ],
              [
                106.1633361985588,
                9.853734585082842
              ],
              [
                106.16335480593607,
                9.854278554369136
              ],
              [
                106.16349365258395,
                9.854599709153302
              ],
              [
                106.16370704241666,
                9.854893912749384
              ],
              [
                106.16505588893222,
                9.855188175841162
              ],
              [
                106.16567488757919,
                9.855594077296788
              ]
            ]
          ]
        ]
      }
    }
  ]
}