{
  "type": "FeatureCollection",
  "name": "Ấp Trà Điêu",
  "crs": {
    "type": "name",
    "properties": {
      "name": "urn:ogc:def:crs:OGC:1.3:CRS84"
    }
  },
  "features": [
    {
      "type": "Feature",
      "properties": {
        "Layer": "14- TRA DIE",
        "PaperSpace": null,
        "SubClasses": "AcDbEntity:AcDbHatch",
        "Linetype": "Continuou",
        "EntityHandle": "396",
        "Text": "ANSI31",
        "ten": "Ấp Trà Điêu",
        "ma": "3005015",
        "loai": "Ấp",
        "dien_tich_ha": "194.907",
        "dan_so": "1911",
        "so_ho": "464",
        "sap_nhap_tu": [
          "Ấp Trà Điêu"
        ],
        "audio": "audio/Ap Tra Dieu.mp3",
        "dien_tich_km2": "1.95",
        "mat_do_km2": "980.0"
      },
      "geometry": {
        "type": "MultiPolygon",
        "coordinates": [
          [
            [
              [
                106.06455671827914,
                9.812960795410133
              ],
              [
                106.06482869236,
                9.81263986690361
              ],
              [
                106.06545963375777,
                9.811750628849731
              ],
              [
                106.06564999458476,
                9.811499138262866
              ],
              [
                106.06582026449392,
                9.811229874468568
              ],
              [
                106.06584040970284,
                9.811215747302322
              ],
              [
                106.06613022250617,
                9.81126118907482
              ],
              [
                106.0665420655405,
                9.811431741991546
              ],
              [
                106.06734853550071,
                9.812134803105852
              ],
              [
                106.06808541675068,
                9.8127951285002
              ],
              [
                106.06908588419302,
                9.813619431640364
              ],
              [
                106.07007002261078,
                9.814434570739747
              ],
              [
                106.0707263003836,
                9.814994095747064
              ],
              [
                106.07105600060193,
                9.815166640681454
              ],
              [
                106.07105055356945,
                9.815179782295433
              ],
              [
                106.07065090122184,
                9.815918945978042
              ],
              [
                106.07033016364214,
                9.816482123850232
              ],
              [
                106.07002777506379,
                9.817114345830928
              ],
              [
                106.06974412742487,
                9.81767167440349
              ],
              [
                106.06959252162159,
                9.817987559859786
              ],
              [
                106.06959817653603,
                9.817989313396636
              ],
              [
                106.06924678573357,
                9.818647610811817
              ],
              [
                106.06910016879824,
                9.818896039872213
              ],
              [
                106.06882797722089,
                9.819330658594698
              ],
              [
                106.06872820374504,
                9.819518432371552
              ],
              [
                106.06865223299728,
                9.819712042977878
              ],
              [
                106.06862475077526,
                9.819740297864158
              ],
              [
                106.06853635222957,
                9.819866004103792
              ],
              [
                106.06837387309884,
                9.820218730611263
              ],
              [
                106.06822927857615,
                9.82058469237708
              ],
              [
                106.06818255135869,
                9.820660536571166
              ],
              [
                106.06800808429057,
                9.820882882698518
              ],
              [
                106.06795276564473,
                9.820999155724664
              ],
              [
                106.06793336720757,
                9.8212240444882
              ],
              [
                106.0678781057328,
                9.82132042662842
              ],
              [
                106.06721700599124,
                9.821908674420943
              ],
              [
                106.06676912168712,
                9.822277765566538
              ],
              [
                106.06656487561679,
                9.822465623243701
              ],
              [
                106.06621568682078,
                9.822870261546344
              ],
              [
                106.065900559,
                9.823309380226371
              ],
              [
                106.06567063903117,
                9.823625033414647
              ],
              [
                106.06545754506874,
                9.82386435007539
              ],
              [
                106.0653311925422,
                9.823970253505594
              ],
              [
                106.06492432140868,
                9.824485790856412
              ],
              [
                106.06478529586204,
                9.824710469085828
              ],
              [
                106.06477658096696,
                9.824707121380994
              ],
              [
                106.06434484012475,
                9.8245122996339
              ],
              [
                106.06403309219289,
                9.824371590248182
              ],
              [
                106.06359910750551,
                9.824185695522049
              ],
              [
                106.0631652145942,
                9.823999890474028
              ],
              [
                106.06274443135727,
                9.823857100828251
              ],
              [
                106.06216205501609,
                9.82363067342317
              ],
              [
                106.06148229967044,
                9.823286504648646
              ],
              [
                106.06119653786476,
                9.823147015231452
              ],
              [
                106.06091077644041,
                9.823007615973884
              ],
              [
                106.06014942082504,
                9.822819636783958
              ],
              [
                106.05897879364738,
                9.82255574981242
              ],
              [
                106.05839417693083,
                9.82242398239768
              ],
              [
                106.05828327010437,
                9.822373534625223
              ],
              [
                106.05799287244751,
                9.822240921610119
              ],
              [
                106.05772926127747,
                9.822098770573339
              ],
              [
                106.05738430172477,
                9.821775108321326
              ],
              [
                106.0570846188413,
                9.821486542855554
              ],
              [
                106.05678731786546,
                9.821313705146824
              ],
              [
                106.05623949573872,
                9.821138927973275
              ],
              [
                106.05525422602732,
                9.82082824945514
              ],
              [
                106.05496592016519,
                9.820745901356622
              ],
              [
                106.05479618357607,
                9.820697355046331
              ],
              [
                106.05440608946743,
                9.820475571457083
              ],
              [
                106.05389458758955,
                9.820335581133785
              ],
              [
                106.05335980409119,
                9.820201334197314
              ],
              [
                106.0532317824856,
                9.82018454522047
              ],
              [
                106.05288592328212,
                9.820138998068067
              ],
              [
                106.0526520301528,
                9.82010375607312
              ],
              [
                106.05240910949357,
                9.820067081989013
              ],
              [
                106.05228916432974,
                9.82002785638875
              ],
              [
                106.05223927070227,
                9.82001148210087
              ],
              [
                106.05214176404283,
                9.81997963394072
              ],
              [
                106.05204620980214,
                9.819915685002966
              ],
              [
                106.05195065544751,
                9.819851645620565
              ],
              [
                106.05192761773185,
                9.819812714008664
              ],
              [
                106.05188145100414,
                9.819734760512123
              ],
              [
                106.05186322528256,
                9.819628913448133
              ],
              [
                106.05185411250167,
                9.819576035123001
              ],
              [
                106.0518838042851,
                9.819394341632089
              ],
              [
                106.05249807850886,
                9.818029148333945
              ],
              [
                106.05280822116171,
                9.817373399879203
              ],
              [
                106.05297168844352,
                9.817106135568476
              ],
              [
                106.05306651374717,
                9.816951008289523
              ],
              [
                106.05322475084698,
                9.816718472031422
              ],
              [
                106.05331587370134,
                9.816584688837528
              ],
              [
                106.05345775952061,
                9.816332378156886
              ],
              [
                106.05359964528259,
                9.81608015784033
              ],
              [
                106.05405919864147,
                9.815259607685904
              ],
              [
                106.05433067701875,
                9.814709798007643
              ],
              [
                106.05454086754682,
                9.814199057603297
              ],
              [
                106.05457180175534,
                9.814107687147306
              ],
              [
                106.05464863867749,
                9.813880979710717
              ],
              [
                106.05467105686347,
                9.813490738661125
              ],
              [
                106.05466587792135,
                9.813448493326757
              ],
              [
                106.05463907793201,
                9.813230273751476
              ],
              [
                106.05459656002836,
                9.812934322409578
              ],
              [
                106.05454826818519,
                9.812729429091377
              ],
              [
                106.05445168484731,
                9.812319732832613
              ],
              [
                106.05407977001603,
                9.811564746373465
              ],
              [
                106.05570364577429,
                9.810647869351012
              ],
              [
                106.05668827508602,
                9.810152694252297
              ],
              [
                106.05744317104165,
                9.809782639968464
              ],
              [
                106.05818788080234,
                9.809481384239337
              ],
              [
                106.05847636155292,
                9.809412291042053
              ],
              [
                106.05863485551636,
                9.809846610265197
              ],
              [
                106.05903961233035,
                9.81027671086563
              ],
              [
                106.05996866256721,
                9.810962917565854
              ],
              [
                106.06130130549116,
                9.812009813509958
              ],
              [
                106.06146909599731,
                9.812107749994595
              ],
              [
                106.06160402312432,
                9.812035614392798
              ],
              [
                106.06206682874804,
                9.811470567711456
              ],
              [
                106.06250694338324,
                9.811035973229568
              ],
              [
                106.06272113024279,
                9.811087109131103
              ],
              [
                106.0635802191661,
                9.811791366851406
              ],
              [
                106.0633604404486,
                9.812016654937224
              ],
              [
                106.06455671827914,
                9.812960795410133
              ]
            ]
          ]
        ]
      }
    }
  ]
}