{
  "type": "FeatureCollection",
  "name": "Ấp Đồng Điền",
  "crs": {
    "type": "name",
    "properties": {
      "name": "urn:ogc:def:crs:OGC:1.3:CRS84"
    }
  },
  "features": [
    {
      "type": "Feature",
      "properties": {
        "Layer": "12- DONG DIE",
        "PaperSpace": null,
        "SubClasses": "AcDbEntity:AcDbHatch",
        "Linetype": "Continuou",
        "EntityHandle": "3E8",
        "Text": "ANSI31",
        "ten": "Ấp Đồng Điền",
        "ma": "3005005",
        "loai": "Ấp",
        "dien_tich_ha": "313.215",
        "dan_so": "3054",
        "so_ho": "732",
        "sap_nhap_tu": [
          "Ấp Đồng Điền",
          "Ấp Xèo Cạn"
        ],
        "audio": "audio/Ấp Đồng Điền"
      },
      "geometry": {
        "type": "MultiPolygon",
        "coordinates": [
          [
            [
              [
                106.10119972727828,
                9.784068417036462
              ],
              [
                106.10195916563092,
                9.78495277915185
              ],
              [
                106.1023321017187,
                9.785474355950747
              ],
              [
                106.10263789968927,
                9.785968022660567
              ],
              [
                106.10292571333669,
                9.786496711580913
              ],
              [
                106.10322673773433,
                9.786920223996125
              ],
              [
                106.10341995586607,
                9.787207762483616
              ],
              [
                106.10341995407063,
                9.787206767920983
              ],
              [
                106.10418368356336,
                9.788339757931366
              ],
              [
                106.10434189281207,
                9.788219947808823
              ],
              [
                106.10443662272493,
                9.78833225559682
              ],
              [
                106.1045156935738,
                9.78855607297759
              ],
              [
                106.10453494807686,
                9.788769237398473
              ],
              [
                106.10459475969886,
                9.78887799066577
              ],
              [
                106.10482800941855,
                9.789222780066684
              ],
              [
                106.1049053234656,
                9.789331863760577
              ],
              [
                106.10490540398631,
                9.789376347816763
              ],
              [
                106.10489362186901,
                9.78941389104038
              ],
              [
                106.10493677626509,
                9.789586145250345
              ],
              [
                106.1048779692351,
                9.789780732727836
              ],
              [
                106.10536905149924,
                9.79025173386503
              ],
              [
                106.10538629564552,
                9.79031083455688
              ],
              [
                106.10540069296971,
                9.790408637953117
              ],
              [
                106.1054012593897,
                9.790419396331616
              ],
              [
                106.10538815109972,
                9.79047963610455
              ],
              [
                106.10538372089921,
                9.790499716137086
              ],
              [
                106.10532464971976,
                9.790598735463757
              ],
              [
                106.10528151121221,
                9.790687057413635
              ],
              [
                106.10520078925435,
                9.79081043694947
              ],
              [
                106.10504341613554,
                9.790989739107461
              ],
              [
                106.10501194149168,
                9.7910255995313
              ],
              [
                106.10496982598447,
                9.791074860332179
              ],
              [
                106.1049054841377,
                9.791142148932263
              ],
              [
                106.10465328190669,
                9.791246308474548
              ],
              [
                106.10456991710929,
                9.791319873899218
              ],
              [
                106.10454147129553,
                9.791316850426423
              ],
              [
                106.10442319981415,
                9.791192016947385
              ],
              [
                106.10389315071596,
                9.790949110511768
              ],
              [
                106.10374244562334,
                9.790946756038513
              ],
              [
                106.1036164768253,
                9.791039565344494
              ],
              [
                106.10357170159328,
                9.791130421635094
              ],
              [
                106.10350496767877,
                9.791277103030424
              ],
              [
                106.10352870872,
                9.791299664602976
              ],
              [
                106.10349837686567,
                9.79141318939537
              ],
              [
                106.10346119015895,
                9.791415696683245
              ],
              [
                106.10345600956903,
                9.791626011298392
              ],
              [
                106.103417581316,
                9.791849585588343
              ],
              [
                106.10342898831264,
                9.792007972485923
              ],
              [
                106.10344870950293,
                9.79222737476369
              ],
              [
                106.10343367574623,
                9.792332102104675
              ],
              [
                106.10342098571846,
                9.792422268457468
              ],
              [
                106.10338997826668,
                9.792515089395641
              ],
              [
                106.10329376080762,
                9.79279970609621
              ],
              [
                106.10331343217986,
                9.79279967114527
              ],
              [
                106.1033135574702,
                9.792799851752749
              ],
              [
                106.10334654352549,
                9.792847629519414
              ],
              [
                106.10329277279902,
                9.793001062160675
              ],
              [
                106.10322151603965,
                9.7935711652072
              ],
              [
                106.10333722938908,
                9.793880671924812
              ],
              [
                106.10334128657517,
                9.793939521872492
              ],
              [
                106.10321601454925,
                9.794504459303356
              ],
              [
                106.10309074215502,
                9.795069396694728
              ],
              [
                106.10298712460092,
                9.795385390698465
              ],
              [
                106.10292463236583,
                9.795507919863065
              ],
              [
                106.1027544123507,
                9.795487517744888
              ],
              [
                106.10268787914895,
                9.795492337310732
              ],
              [
                106.10260932521713,
                9.795756118858803
              ],
              [
                106.10249533641498,
                9.79603316347482
              ],
              [
                106.10228216636641,
                9.796306857977944
              ],
              [
                106.10211302483688,
                9.796530928354793
              ],
              [
                106.10193221892226,
                9.796770450727072
              ],
              [
                106.1020647628043,
                9.796861651536245
              ],
              [
                106.10212638703499,
                9.796914614207346
              ],
              [
                106.10212670581797,
                9.7969397482448
              ],
              [
                106.10211244576182,
                9.79696807257319
              ],
              [
                106.10206677070389,
                9.797014715900318
              ],
              [
                106.10198730753673,
                9.797077964590711
              ],
              [
                106.10160020759304,
                9.796892220876106
              ],
              [
                106.1013507809484,
                9.797432243197564
              ],
              [
                106.10133664123903,
                9.797426210629123
              ],
              [
                106.10125111298423,
                9.797361174919212
              ],
              [
                106.1008720951507,
                9.79695580467559
              ],
              [
                106.10073805566581,
                9.796830278481488
              ],
              [
                106.10073297716816,
                9.79679412256434
              ],
              [
                106.10063319348833,
                9.79670922121136
              ],
              [
                106.10052002308325,
                9.79683419038239
              ],
              [
                106.10050424183862,
                9.796827708619677
              ],
              [
                106.10005339816057,
                9.796473999420286
              ],
              [
                106.09960471063097,
                9.7962037362896
              ],
              [
                106.09947051400817,
                9.796142583370301
              ],
              [
                106.09904152925164,
                9.795930238922478
              ],
              [
                106.09896302885242,
                9.795920612917557
              ],
              [
                106.09881100237527,
                9.795930374425291
              ],
              [
                106.09874603782303,
                9.795996761235184
              ],
              [
                106.09870287950854,
                9.796023780223445
              ],
              [
                106.0977435727022,
                9.795306692929623
              ],
              [
                106.09765465309825,
                9.795230541489666
              ],
              [
                106.09751137423885,
                9.795187486202849
              ],
              [
                106.09757288260874,
                9.79507436253449
              ],
              [
                106.09710729820223,
                9.794732247794457
              ],
              [
                106.09707579388825,
                9.794700658887486
              ],
              [
                106.09676584542599,
                9.794991246634593
              ],
              [
                106.09579418694601,
                9.795573038918413
              ],
              [
                106.09556588450617,
                9.795695948270778
              ],
              [
                106.09491331559202,
                9.796104581047226
              ],
              [
                106.09431394717423,
                9.796546662493672
              ],
              [
                106.09330093271834,
                9.797251842987642
              ],
              [
                106.09283444754045,
                9.797557076600047
              ],
              [
                106.09236796148795,
                9.797862309616262
              ],
              [
                106.09207494518459,
                9.798067107721634
              ],
              [
                106.09178192851411,
                9.798271905592522
              ],
              [
                106.09149966235664,
                9.798499423209512
              ],
              [
                106.09118554575846,
                9.79875741987096
              ],
              [
                106.09082940318497,
                9.79911657050771
              ],
              [
                106.09050511003089,
                9.799445241608899
              ],
              [
                106.0901904775253,
                9.799721727665638
              ],
              [
                106.09001741843075,
                9.799952670692749
              ],
              [
                106.0897365294068,
                9.800187236744115
              ],
              [
                106.08964974801567,
                9.800082870807115
              ],
              [
                106.08930667498953,
                9.799637100672237
              ],
              [
                106.08905723304261,
                9.799122634180236
              ],
              [
                106.08900753395226,
                9.799084928853878
              ],
              [
                106.08889089429593,
                9.79905484312017
              ],
              [
                106.08879100874712,
                9.799066046760101
              ],
              [
                106.0883915615884,
                9.799268268927673
              ],
              [
                106.08819848725892,
                9.799314894820789
              ],
              [
                106.08819159896194,
                9.799438076575644
              ],
              [
                106.087796769501,
                9.799078497761009
              ],
              [
                106.08746531323166,
                9.798679707548517
              ],
              [
                106.08687053266127,
                9.798419613971507
              ],
              [
                106.0863280356257,
                9.79850247250432
              ],
              [
                106.08549494771391,
                9.798549806103638
              ],
              [
                106.08440441600024,
                9.798505605341223
              ],
              [
                106.08393920482837,
                9.798455205522194
              ],
              [
                106.08368558749795,
                9.798235479327388
              ],
              [
                106.08334768249908,
                9.797614124836588
              ],
              [
                106.08266444274066,
                9.797006011492389
              ],
              [
                106.0815254694763,
                9.796402081691674
              ],
              [
                106.08014006064265,
                9.795699779484229
              ],
              [
                106.08122052006146,
                9.794757130500793
              ],
              [
                106.08269700413247,
                9.793727759966417
              ],
              [
                106.08441946933709,
                9.792345146655768
              ],
              [
                106.0863721026835,
                9.790772372131357
              ],
              [
                106.08823233493705,
                9.78929783502562
              ],
              [
                106.09013863863439,
                9.787657559773782
              ],
              [
                106.0911487933686,
                9.786581596380715
              ],
              [
                106.09242244561975,
                9.785045117328124
              ],
              [
                106.09369484005369,
                9.782928252778023
              ],
              [
                106.09474342251008,
                9.780855945047684
              ],
              [
                106.09551197619012,
                9.779535709966355
              ],
              [
                106.09666068898782,
                9.777426364362364
              ],
              [
                106.09696375268507,
                9.776968525327975
              ],
              [
                106.09855944926224,
                9.774575910957154
              ],
              [
                106.09952841143658,
                9.773286364048635
              ],
              [
                106.10042060251489,
                9.772567312383114
              ],
              [
                106.10203277446591,
                9.771536696289425
              ],
              [
                106.10203456123423,
                9.771535580845368
              ],
              [
                106.10215680870296,
                9.771645761459844
              ],
              [
                106.10211994200552,
                9.77167295125313
              ],
              [
                106.10209218943055,
                9.77169340241238
              ],
              [
                106.10217002844458,
                9.771748811364413
              ],
              [
                106.10222357784299,
                9.771773580764403
              ],
              [
                106.1022897370918,
                9.771815687548116
              ],
              [
                106.10230232144066,
                9.771920185211235
              ],
              [
                106.10221423254991,
                9.772031103915777
              ],
              [
                106.1023652718247,
                9.772255875714446
              ],
              [
                106.10249223121814,
                9.772198418120437
              ],
              [
                106.10257072265043,
                9.772154156520168
              ],
              [
                106.10264429311323,
                9.772262434002428
              ],
              [
                106.1026746834931,
                9.77223263358381
              ],
              [
                106.10270762573155,
                9.772253280303818
              ],
              [
                106.10282218502864,
                9.772295029988136
              ],
              [
                106.10290127416788,
                9.772329609274033
              ],
              [
                106.10294230972407,
                9.772390295544042
              ],
              [
                106.10296079569649,
                9.772431220851105
              ],
              [
                106.10293166301946,
                9.772450802152747
              ],
              [
                106.10291070257115,
                9.77250364174924
              ],
              [
                106.10313529307213,
                9.77270450782483
              ],
              [
                106.10322652772032,
                9.772751542786695
              ],
              [
                106.10325456832959,
                9.772783500032881
              ],
              [
                106.10335950055583,
                9.772844434602096
              ],
              [
                106.10352187252762,
                9.773014940821588
              ],
              [
                106.10377669967676,
                9.773201467193658
              ],
              [
                106.10380807101949,
                9.773260723849628
              ],
              [
                106.10346312928245,
                9.773553373129435
              ],
              [
                106.1036654534461,
                9.773784028536848
              ],
              [
                106.10405359761879,
                9.774253407834745
              ],
              [
                106.10442674479769,
                9.774695417479272
              ],
              [
                106.10444291347586,
                9.77471482800051
              ],
              [
                106.10449186109459,
                9.77471474102001
              ],
              [
                106.10504169326337,
                9.77537731998727
              ],
              [
                106.1053648883975,
                9.775766705274673
              ],
              [
                106.10556079031358,
                9.775978741614766
              ],
              [
                106.10599431100492,
                9.776486373534832
              ],
              [
                106.10600737337404,
                9.776501720825122
              ],
              [
                106.10378659343249,
                9.778331604020424
              ],
              [
                106.10378624175021,
                9.778335518991101
              ],
              [
                106.10269240510684,
                9.779238691011379
              ],
              [
                106.10269222280407,
                9.779238691334525
              ],
              [
                106.1024795177351,
                9.779414383242784
              ],
              [
                106.10158665013246,
                9.78015447509958
              ],
              [
                106.10104328214624,
                9.780604799431712
              ],
              [
                106.10029929019522,
                9.781209454310515
              ],
              [
                106.09984678019377,
                9.781599219112016
              ],
              [
                106.09965159280503,
                9.781734914986131
              ],
              [
                106.09936134269316,
                9.78190905953502
              ],
              [
                106.09938039154964,
                9.781931491360819
              ],
              [
                106.10016461184505,
                9.782859768646235
              ],
              [
                106.10016187727248,
                9.782859773474865
              ],
              [
                106.10119972727828,
                9.784068417036462
              ]
            ]
          ]
        ]
      }
    }
  ]
}