{
  "type": "FeatureCollection",
  "name": "Ấp I",
  "crs": {
    "type": "name",
    "properties": {
      "name": "urn:ogc:def:crs:OGC:1.3:CRS84"
    }
  },
  "features": [
    {
      "type": "Feature",
      "properties": {
        "Layer": "6- AP ",
        "PaperSpace": null,
        "SubClasses": "AcDbEntity:AcDbHatch",
        "Linetype": "Continuou",
        "EntityHandle": "3AF",
        "Text": "ANSI31",
        "ten": "Ấp I",
        "ma": "3005015",
        "loai": "Ấp",
        "dien_tich_ha": "607.654",
        "dan_so": "1761",
        "so_ho": "422",
        "sap_nhap_tu": [
          "Giữ nguyên"
        ],
        "audio": "audio/Ấp 1"
      },
      "geometry": {
        "type": "MultiPolygon",
        "coordinates": [
          [
            [
              [
                106.08961393502133,
                9.842667391945968
              ],
              [
                106.08906433902114,
                9.84311409196003
              ],
              [
                106.08889465163153,
                9.843371294021956
              ],
              [
                106.08829882504978,
                9.843841526135604
              ],
              [
                106.0879257786407,
                9.84338224853715
              ],
              [
                106.08607778386934,
                9.845012496064824
              ],
              [
                106.08371546238986,
                9.84662493145357
              ],
              [
                106.08371424129862,
                9.846623507146179
              ],
              [
                106.08335301056783,
                9.846843742620019
              ],
              [
                106.08313107223714,
                9.846563395742717
              ],
              [
                106.08301702245441,
                9.846408038294392
              ],
              [
                106.08301174197301,
                9.846412161167244
              ],
              [
                106.08291486639935,
                9.846276529117404
              ],
              [
                106.08269954708182,
                9.845975104420907
              ],
              [
                106.08268543282499,
                9.84598462205764
              ],
              [
                106.08230931366334,
                9.845280681074328
              ],
              [
                106.08276400164496,
                9.845005680380417
              ],
              [
                106.0827509615123,
                9.844985272428483
              ],
              [
                106.08274556855392,
                9.844977235037508
              ],
              [
                106.08227892821212,
                9.844274179917878
              ],
              [
                106.08213631087074,
                9.844359865310292
              ],
              [
                106.08184044235487,
                9.844497982511223
              ],
              [
                106.08166265138036,
                9.844228859978573
              ],
              [
                106.08170681071459,
                9.844196506754807
              ],
              [
                106.08190856433964,
                9.844080263787927
              ],
              [
                106.08168971046713,
                9.843748542096547
              ],
              [
                106.08147424759967,
                9.843886069561476
              ],
              [
                106.08145759100877,
                9.843901468321006
              ],
              [
                106.08082755455003,
                9.844172432798846
              ],
              [
                106.0805379690677,
                9.84376450242949
              ],
              [
                106.08033312286555,
                9.843892371333679
              ],
              [
                106.08030916158337,
                9.843849104983049
              ],
              [
                106.07999400867067,
                9.84338528836651
              ],
              [
                106.07991810654023,
                9.843303595480462
              ],
              [
                106.0798883077311,
                9.84331087961095
              ],
              [
                106.07981193654959,
                9.843169334532334
              ],
              [
                106.07972007093596,
                9.843029985912105
              ],
              [
                106.07957933774571,
                9.842837016150355
              ],
              [
                106.07956936829231,
                9.842818498718712
              ],
              [
                106.07957280990759,
                9.842805473437451
              ],
              [
                106.07963679654446,
                9.842746143592548
              ],
              [
                106.07955236368488,
                9.842634357929247
              ],
              [
                106.07950053941835,
                9.842662745876392
              ],
              [
                106.07943931886658,
                9.842687623847203
              ],
              [
                106.0791814516661,
                9.84221584447253
              ],
              [
                106.07933919423768,
                9.842151017379804
              ],
              [
                106.07931958214354,
                9.84211722612063
              ],
              [
                106.0825613814455,
                9.840321846082377
              ],
              [
                106.08441753537018,
                9.839394075170185
              ],
              [
                106.08446845934068,
                9.839516205149366
              ],
              [
                106.08457825033597,
                9.839454128073639
              ],
              [
                106.08471674337481,
                9.839253896543823
              ],
              [
                106.08585489884163,
                9.838278096664265
              ],
              [
                106.10176148818626,
                9.824489770111176
              ],
              [
                106.1072654077442,
                9.829838340417448
              ],
              [
                106.10726695355586,
                9.829855597208988
              ],
              [
                106.08961393502133,
                9.842667391945968
              ]
            ]
          ]
        ]
      }
    }
  ]
}