{
  "type": "FeatureCollection",
  "name": "Ấp Kinh Sáng",
  "crs": {
    "type": "name",
    "properties": {
      "name": "urn:ogc:def:crs:OGC:1.3:CRS84"
    }
  },
  "features": [
    {
      "type": "Feature",
      "properties": {
        "Layer": "5- KINH XAN",
        "PaperSpace": null,
        "SubClasses": "AcDbEntity:AcDbHatch",
        "Linetype": "Continuou",
        "EntityHandle": "3BB",
        "Text": "ANSI31",
        "ten": "Ấp Kinh Xáng",
        "ma": "3005011",
        "loai": "Ấp",
        "dien_tich_ha": "835.012",
        "dan_so": "3165",
        "so_ho": "795",
        "sap_nhap_tu": [
          "Ấp Kinh Xáng"
        ],
        "audio": "audio/Ap Kinh Xang.mp3",
        "dien_tich_km2": "8.35",
        "mat_do_km2": "379.04"
      },
      "geometry": {
        "type": "MultiPolygon",
        "coordinates": [
          [
            [
              [
                106.107247677521,
                9.829844362314555
              ],
              [
                106.10725873034632,
                9.829967751426825
              ],
              [
                106.10725115718147,
                9.830014055957232
              ],
              [
                106.10726872206055,
                9.830047838512623
              ],
              [
                106.10735086751679,
                9.830276930642661
              ],
              [
                106.10743301309451,
                9.830506022742817
              ],
              [
                106.1074992881976,
                9.830705623801924
              ],
              [
                106.10756710654739,
                9.83090160559035
              ],
              [
                106.10765841272979,
                9.831129822243318
              ],
              [
                106.107799198609,
                9.831445830398133
              ],
              [
                106.10797231750483,
                9.831745325383459
              ],
              [
                106.10807757593454,
                9.83166781288779
              ],
              [
                106.10811344179004,
                9.831847146814775
              ],
              [
                106.10820723648067,
                9.832089824709822
              ],
              [
                106.10829345469962,
                9.832875439993552
              ],
              [
                106.10827361092456,
                9.83309119860649
              ],
              [
                106.10829093104013,
                9.833489522522576
              ],
              [
                106.10835272639937,
                9.833880895117632
              ],
              [
                106.10839387534297,
                9.834049077730711
              ],
              [
                106.10842657850164,
                9.834284813253307
              ],
              [
                106.10854097366428,
                9.834625189213618
              ],
              [
                106.108714148499,
                9.835053520538727
              ],
              [
                106.10878404715541,
                9.835239552882426
              ],
              [
                106.10897461896077,
                9.83570889971569
              ],
              [
                106.10917372249885,
                9.836157345871689
              ],
              [
                106.10961271999253,
                9.83692586965122
              ],
              [
                106.10989503696335,
                9.83731286592706
              ],
              [
                106.11014087100541,
                9.837640527147116
              ],
              [
                106.11036416882686,
                9.837957831475538
              ],
              [
                106.11053934549449,
                9.838232819361968
              ],
              [
                106.11059361992882,
                9.838349171849584
              ],
              [
                106.10953560674088,
                9.838971306890059
              ],
              [
                106.10917785957417,
                9.839219873148906
              ],
              [
                106.10890451282636,
                9.839392407635811
              ],
              [
                106.10797412484935,
                9.839915035892298
              ],
              [
                106.10683544656031,
                9.84060168139783
              ],
              [
                106.10565894084678,
                9.84124445089865
              ],
              [
                106.10532893310796,
                9.84145145266009
              ],
              [
                106.10511519215495,
                9.841625245586773
              ],
              [
                106.10574595844423,
                9.842069756039457
              ],
              [
                106.10589641836494,
                9.842239551166966
              ],
              [
                106.10640086233043,
                9.84245165683038
              ],
              [
                106.1070832609532,
                9.842812260056975
              ],
              [
                106.1075979472088,
                9.84309070777324
              ],
              [
                106.10800201190393,
                9.843298742029157
              ],
              [
                106.10873834527594,
                9.843737541330315
              ],
              [
                106.10905679795052,
                9.84394111746245
              ],
              [
                106.10926241873177,
                9.84406262194853
              ],
              [
                106.10965545020971,
                9.844318049803663
              ],
              [
                106.10987834377744,
                9.844512033035071
              ],
              [
                106.10901095570775,
                9.844744871333141
              ],
              [
                106.10903053620201,
                9.844784606871562
              ],
              [
                106.10911600585686,
                9.8449580539803
              ],
              [
                106.10950592904669,
                9.845630647914575
              ],
              [
                106.10969496448448,
                9.845954026468114
              ],
              [
                106.10970994671985,
                9.845945997976127
              ],
              [
                106.11010060959106,
                9.845853434170355
              ],
              [
                106.11051750249896,
                9.845796444789645
              ],
              [
                106.11056073325976,
                9.845806040722806
              ],
              [
                106.11058866580784,
                9.845825338370894
              ],
              [
                106.11068459861723,
                9.845808684899765
              ],
              [
                106.11097543185707,
                9.845894436997357
              ],
              [
                106.1113094980543,
                9.845960556543707
              ],
              [
                106.1115046551137,
                9.845993022807788
              ],
              [
                106.11187330820644,
                9.846028339147987
              ],
              [
                106.11200953569276,
                9.846041382899148
              ],
              [
                106.11210150853721,
                9.846033440834317
              ],
              [
                106.11216718322756,
                9.846002672212972
              ],
              [
                106.11229557548515,
                9.846166898614847
              ],
              [
                106.11199111552845,
                9.846434888540232
              ],
              [
                106.11181918537991,
                9.846589352166063
              ],
              [
                106.11196328423526,
                9.846767564067676
              ],
              [
                106.11244813609791,
                9.847275522969833
              ],
              [
                106.1125877842116,
                9.847412876492848
              ],
              [
                106.1129104252883,
                9.847758658774495
              ],
              [
                106.11336415161598,
                9.848244792994803
              ],
              [
                106.11370094546884,
                9.848601488530303
              ],
              [
                106.114303906464,
                9.849279746340798
              ],
              [
                106.11476824794427,
                9.849785071576967
              ],
              [
                106.11488344396093,
                9.849911031441867
              ],
              [
                106.11544198927601,
                9.850479246258766
              ],
              [
                106.11526382935129,
                9.850765091259827
              ],
              [
                106.1152536381076,
                9.850824871997633
              ],
              [
                106.11463431403251,
                9.851356807421391
              ],
              [
                106.11403691456374,
                9.85181510675728
              ],
              [
                106.1139657156422,
                9.851866409306348
              ],
              [
                106.11367746018249,
                9.852074247594544
              ],
              [
                106.11321111549685,
                9.852410432265367
              ],
              [
                106.1128609249378,
                9.85265111146913
              ],
              [
                106.11274073790923,
                9.85273550301221
              ],
              [
                106.11239478493485,
                9.85300031402239
              ],
              [
                106.11235873020881,
                9.853026418023436
              ],
              [
                106.11188550697126,
                9.85339136442897
              ],
              [
                106.1118574640085,
                9.85341148667928
              ],
              [
                106.11207834593505,
                9.85344978247292
              ],
              [
                106.11251483022156,
                9.853481358131305
              ],
              [
                106.11252719838691,
                9.853514064751986
              ],
              [
                106.11293427318685,
                9.853516851871293
              ],
              [
                106.11296281498434,
                9.853569419694056
              ],
              [
                106.1130188919113,
                9.853672477687851
              ],
              [
                106.11302502743234,
                9.853687203663585
              ],
              [
                106.11325112051114,
                9.85412800238737
              ],
              [
                106.1132790464499,
                9.854192596059155
              ],
              [
                106.11341971681834,
                9.854437265894184
              ],
              [
                106.11364350199759,
                9.854861975177364
              ],
              [
                106.1138276803025,
                9.855166508680556
              ],
              [
                106.11388004460248,
                9.85528295418134
              ],
              [
                106.11411843308875,
                9.855272303950418
              ],
              [
                106.11423988045975,
                9.85527750763941
              ],
              [
                106.11437836993917,
                9.85527915420301
              ],
              [
                106.11478540474774,
                9.855259245688337
              ],
              [
                106.11495915305034,
                9.855248079728963
              ],
              [
                106.11553018810417,
                9.855220909744775
              ],
              [
                106.11575050161994,
                9.855197724102936
              ],
              [
                106.11577803485294,
                9.855394319354572
              ],
              [
                106.11580903650368,
                9.855642171713749
              ],
              [
                106.11593495737993,
                9.856338383333965
              ],
              [
                106.11598500824705,
                9.856681494820453
              ],
              [
                106.11606608584025,
                9.857236565086357
              ],
              [
                106.11609084882372,
                9.857413998045361
              ],
              [
                106.11618487234271,
                9.858088983726095
              ],
              [
                106.11606053301891,
                9.858026863905241
              ],
              [
                106.11599469747556,
                9.857972013794821
              ],
              [
                106.11536811346943,
                9.857741703190516
              ],
              [
                106.11536411708742,
                9.857749847533162
              ],
              [
                106.11524901524363,
                9.857873017366055
              ],
              [
                106.11516084494697,
                9.857917479871155
              ],
              [
                106.11512384724008,
                9.857926859730936
              ],
              [
                106.11423176086363,
                9.858574657544702
              ],
              [
                106.11378249352497,
                9.858881338065627
              ],
              [
                106.11351057187231,
                9.859050812198873
              ],
              [
                106.11278867995202,
                9.85954242710452
              ],
              [
                106.11270825366293,
                9.85958434341388
              ],
              [
                106.1113249710177,
                9.860502181668398
              ],
              [
                106.11032353683768,
                9.861189225944234
              ],
              [
                106.11009315734408,
                9.861442524470165
              ],
              [
                106.11025469355943,
                9.861580743078163
              ],
              [
                106.11047003579581,
                9.861776546924403
              ],
              [
                106.11071544709128,
                9.861962712522327
              ],
              [
                106.11092076535064,
                9.86216088490288
              ],
              [
                106.11058453483349,
                9.862463288254329
              ],
              [
                106.11022532370124,
                9.862812656591478
              ],
              [
                106.11015923928993,
                9.862870368458404
              ],
              [
                106.10988020896207,
                9.863143283853551
              ],
              [
                106.10985822468267,
                9.86313681396365
              ],
              [
                106.10946170090878,
                9.863573496401886
              ],
              [
                106.10962439876947,
                9.863698422619398
              ],
              [
                106.10932160402139,
                9.864137919057884
              ],
              [
                106.10902233074259,
                9.863963512920979
              ],
              [
                106.10878373788684,
                9.863767117302
              ],
              [
                106.10842920798997,
                9.863489469671743
              ],
              [
                106.10841842354166,
                9.86347520406626
              ],
              [
                106.10818322794412,
                9.863291459497804
              ],
              [
                106.10806341900128,
                9.863186978686553
              ],
              [
                106.10742028939559,
                9.862686985038629
              ],
              [
                106.10701893363014,
                9.863125300887482
              ],
              [
                106.10674202402436,
                9.862964323699243
              ],
              [
                106.10640281976933,
                9.86323861040899
              ],
              [
                106.10639283091287,
                9.863260508032628
              ],
              [
                106.10632825841405,
                9.863397598056112
              ],
              [
                106.10663361180205,
                9.86350762254831
              ],
              [
                106.10656032693599,
                9.863641699488305
              ],
              [
                106.10554336198332,
                9.86565201993257
              ],
              [
                106.10548156019071,
                9.865652453490393
              ],
              [
                106.10538179851015,
                9.865841774182185
              ],
              [
                106.10490229621696,
                9.865652634373342
              ],
              [
                106.1048156623428,
                9.865616670268697
              ],
              [
                106.10455816114423,
                9.865500139178794
              ],
              [
                106.1043824913279,
                9.865860926156136
              ],
              [
                106.10428186531641,
                9.865726483291184
              ],
              [
                106.10384572955536,
                9.865094110494354
              ],
              [
                106.10363311150036,
                9.864841428415676
              ],
              [
                106.10361446912994,
                9.864817683470315
              ],
              [
                106.1034092712597,
                9.86453406708438
              ],
              [
                106.10341835134767,
                9.86451366295918
              ],
              [
                106.10303673481638,
                9.864028969529537
              ],
              [
                106.10292052663009,
                9.863898441756708
              ],
              [
                106.10273783064102,
                9.863654656286775
              ],
              [
                106.10266073287163,
                9.8635227023216
              ],
              [
                106.10262338239178,
                9.863489045437671
              ],
              [
                106.10246251693427,
                9.863267281276174
              ],
              [
                106.10241954098649,
                9.863198373779683
              ],
              [
                106.10212015869106,
                9.862760772415015
              ],
              [
                106.10190554701234,
                9.862462977071287
              ],
              [
                106.10162857390495,
                9.862114662145183
              ],
              [
                106.10113245184726,
                9.86147922771703
              ],
              [
                106.10105563917121,
                9.861403328184364
              ],
              [
                106.10094219624301,
                9.861277043744948
              ],
              [
                106.10092944736196,
                9.861347135998209
              ],
              [
                106.10092118109763,
                9.861363876931184
              ],
              [
                106.100654238853,
                9.86121698097405
              ],
              [
                106.10054935713092,
                9.861147460134086
              ],
              [
                106.10014430252507,
                9.860956688601325
              ],
              [
                106.10013478404403,
                9.860986812711694
              ],
              [
                106.09997380413965,
                9.861254628017274
              ],
              [
                106.09995832746459,
                9.861267041982137
              ],
              [
                106.09993507312178,
                9.86126391892703
              ],
              [
                106.09953012063477,
                9.861079113652535
              ],
              [
                106.09911550624959,
                9.860895319556803
              ],
              [
                106.09890884517054,
                9.860807715727939
              ],
              [
                106.09861866326942,
                9.860665108702149
              ],
              [
                106.09834054519058,
                9.860538573342478
              ],
              [
                106.09826881019478,
                9.860497291898705
              ],
              [
                106.09788135140353,
                9.860305310956633
              ],
              [
                106.09778644934825,
                9.860258645745727
              ],
              [
                106.09767640416878,
                9.860207125090593
              ],
              [
                106.09756069014675,
                9.86014657324151
              ],
              [
                106.09718145019987,
                9.859961629020518
              ],
              [
                106.09687362106307,
                9.859789758155316
              ],
              [
                106.09685554811797,
                9.85977803657293
              ],
              [
                106.09682660902672,
                9.85975697657265
              ],
              [
                106.096839515333,
                9.85973475759389
              ],
              [
                106.09647517814287,
                9.859521939261803
              ],
              [
                106.09589828059536,
                9.859133735083581
              ],
              [
                106.09575057687714,
                9.859028304301152
              ],
              [
                106.0955681357343,
                9.85889667008133
              ],
              [
                106.0953856947334,
                9.858765035753393
              ],
              [
                106.09486227011821,
                9.858401598579766
              ],
              [
                106.09430010266428,
                9.857989225438178
              ],
              [
                106.09398056574855,
                9.857743415289159
              ],
              [
                106.09358937438459,
                9.857449450831952
              ],
              [
                106.09297270111827,
                9.856992145942426
              ],
              [
                106.09231723568561,
                9.856508778819089
              ],
              [
                106.09210673694443,
                9.856362861483333
              ],
              [
                106.09189623838431,
                9.85621694400428
              ],
              [
                106.09163140599209,
                9.856021756639338
              ],
              [
                106.09129698564607,
                9.85576105179612
              ],
              [
                106.09063208246036,
                9.855299667767223
              ],
              [
                106.08966942427259,
                9.854635013719443
              ],
              [
                106.08945831212738,
                9.854501753353233
              ],
              [
                106.08854322882875,
                9.853877155708936
              ],
              [
                106.08813547633635,
                9.853585996314509
              ],
              [
                106.08844894483255,
                9.853316301479353
              ],
              [
                106.08838374022348,
                9.853260532141405
              ],
              [
                106.08833903373885,
                9.853222294778941
              ],
              [
                106.08829082326601,
                9.85318106044543
              ],
              [
                106.08777235344365,
                9.852723302686757
              ],
              [
                106.08754920316419,
                9.85253527218148
              ],
              [
                106.08734896529836,
                9.852363475841335
              ],
              [
                106.08730925023939,
                9.852383073968388
              ],
              [
                106.08698685115674,
                9.85272982295865
              ],
              [
                106.08659078973015,
                9.852407559070292
              ],
              [
                106.0868363301081,
                9.852110489936685
              ],
              [
                106.08654612396268,
                9.851843916652975
              ],
              [
                106.08620528186503,
                9.851556003322273
              ],
              [
                106.08586585278705,
                9.851241867616947
              ],
              [
                106.08554061059611,
                9.850907273764449
              ],
              [
                106.0859031118021,
                9.850605391416858
              ],
              [
                106.08609822085647,
                9.85045505893898
              ],
              [
                106.0863594548368,
                9.850268898711267
              ],
              [
                106.08600950196437,
                9.849828385061217
              ],
              [
                106.08594047818544,
                9.84987479589582
              ],
              [
                106.08573214499438,
                9.849608802948222
              ],
              [
                106.08559600354593,
                9.84943834079678
              ],
              [
                106.08550401274205,
                9.849333802956396
              ],
              [
                106.08550128104874,
                9.849335706349503
              ],
              [
                106.08522440352182,
                9.849025620297798
              ],
              [
                106.08503144730287,
                9.848845220580435
              ],
              [
                106.08481465085234,
                9.849001376371493
              ],
              [
                106.08471948509482,
                9.849061032416424
              ],
              [
                106.08456270249961,
                9.849179834296185
              ],
              [
                106.0844801181469,
                9.849239649323339
              ],
              [
                106.0841385414236,
                9.848842516888737
              ],
              [
                106.08402981826656,
                9.848917385452669
              ],
              [
                106.08377896752204,
                9.848631302759847
              ],
              [
                106.08369530380185,
                9.848543837898946
              ],
              [
                106.08357707750268,
                9.848398840132587
              ],
              [
                106.08356043333767,
                9.84836948490934
              ],
              [
                106.0837019934811,
                9.848252156397129
              ],
              [
                106.08399482810742,
                9.848046414332336
              ],
              [
                106.08440593115309,
                9.847750688040682
              ],
              [
                106.08448477602212,
                9.847690156220024
              ],
              [
                106.08472015551519,
                9.847525740982357
              ],
              [
                106.08491585534209,
                9.847370937901445
              ],
              [
                106.08485687749493,
                9.847301733950749
              ],
              [
                106.0844408464103,
                9.846920462336012
              ],
              [
                106.08439771743237,
                9.846864843011879
              ],
              [
                106.08422824785313,
                9.846974806249532
              ],
              [
                106.08416279198572,
                9.84702808186915
              ],
              [
                106.08409193226016,
                9.847067172097756
              ],
              [
                106.08391965103942,
                9.846874349392927
              ],
              [
                106.08369618606423,
                9.84661369523757
              ],
              [
                106.08605850756851,
                9.845001259981784
              ],
              [
                106.08790650238141,
                9.843371012556618
              ],
              [
                106.08827954875159,
                9.843830290178937
              ],
              [
                106.08887537534343,
                9.843360058098556
              ],
              [
                106.0890450627433,
                9.843102856045608
              ],
              [
                106.08959465875357,
                9.842656156062176
              ],
              [
                106.107247677521,
                9.829844362314555
              ]
            ]
          ]
        ]
      }
    }
  ]
}