{
  "type": "FeatureCollection",
  "name": "Ấp Bà Bảy",
  "crs": {
    "type": "name",
    "properties": {
      "name": "urn:ogc:def:crs:OGC:1.3:CRS84"
    }
  },
  "features": [
    {
      "type": "Feature",
      "properties": {
        "Layer": "15- VAM DIN",
        "PaperSpace": null,
        "SubClasses": "AcDbEntity:AcDbHatch",
        "Linetype": "Continuou",
        "EntityHandle": "3E1",
        "Text": "ANSI31",
        "ten": "Ấp Bà Bảy",
        "ma": "3005001",
        "loai": "Ấp",
        "dien_tich_ha": "281.804",
        "dan_so": "3476",
        "so_ho": "836",
        "sap_nhap_tu": [
          "Ấp Bà Bảy",
          "ấp Vàm Đình"
        ],
        "audio": "audio/Ap Ba Bay.mp3",
        "dien_tich_km2": "2.82",
        "mat_do_km2": "1232.62"
      },
      "geometry": {
        "type": "MultiPolygon",
        "coordinates": [
          [
            [
              [
                106.07723841327466,
                9.79634668008629
              ],
              [
                106.07771270864087,
                9.796872640541562
              ],
              [
                106.077885422044,
                9.79674457467894
              ],
              [
                106.07791025967376,
                9.79685242654117
              ],
              [
                106.0780626791601,
                9.79733431929629
              ],
              [
                106.07741948305002,
                9.797895464332978
              ],
              [
                106.075995039196,
                9.798919031985106
              ],
              [
                106.07421395989098,
                9.800080673112252
              ],
              [
                106.07289867664966,
                9.800881222474619
              ],
              [
                106.0716217480749,
                9.801870550507047
              ],
              [
                106.07162234949355,
                9.801871310051169
              ],
              [
                106.07101706541381,
                9.802450413451723
              ],
              [
                106.07012384216672,
                9.80302338601842
              ],
              [
                106.0688129762471,
                9.803626220160936
              ],
              [
                106.06709408391059,
                9.80420792990001
              ],
              [
                106.06680612006855,
                9.80438335006182
              ],
              [
                106.06481350287291,
                9.80598589054827
              ],
              [
                106.06366751541678,
                9.806693391505487
              ],
              [
                106.06277845550333,
                9.807221910843406
              ],
              [
                106.06174414036452,
                9.807870909035831
              ],
              [
                106.0596374625214,
                9.808873312680618
              ],
              [
                106.05847636155292,
                9.809412291042053
              ],
              [
                106.05818788080234,
                9.809481384239337
              ],
              [
                106.05744317104165,
                9.809782639968464
              ],
              [
                106.05668827508602,
                9.810152694252297
              ],
              [
                106.05570364577429,
                9.810647869351012
              ],
              [
                106.05407977001603,
                9.811564746373465
              ],
              [
                106.05370272994647,
                9.81079935150343
              ],
              [
                106.05303549282092,
                9.809902160684356
              ],
              [
                106.05236825934718,
                9.809004968307914
              ],
              [
                106.05186514113531,
                9.806744218663948
              ],
              [
                106.05086687565802,
                9.803613749062663
              ],
              [
                106.05080676806968,
                9.802823006268534
              ],
              [
                106.05236726373376,
                9.800915156118716
              ],
              [
                106.05297256533453,
                9.800175111449551
              ],
              [
                106.05392764604748,
                9.799007416587228
              ],
              [
                106.05473139594652,
                9.797816676156422
              ],
              [
                106.05608247925286,
                9.795815049066666
              ],
              [
                106.0575352955533,
                9.793841121652337
              ],
              [
                106.05897873477306,
                9.792003309182075
              ],
              [
                106.0603151522666,
                9.790579319696715
              ],
              [
                106.06215814285986,
                9.788024385104002
              ],
              [
                106.06336328486131,
                9.786353673406499
              ],
              [
                106.06492971819027,
                9.784038179932681
              ],
              [
                106.06593637120538,
                9.78259665699104
              ],
              [
                106.06838446241474,
                9.779304699588389
              ],
              [
                106.06892677401872,
                9.778575440433
              ],
              [
                106.07003293853451,
                9.77758198761147
              ],
              [
                106.0711422481315,
                9.776585700919295
              ],
              [
                106.07747920879208,
                9.783035019517385
              ],
              [
                106.07756820102459,
                9.783402541208332
              ],
              [
                106.07752752189934,
                9.783723594779092
              ],
              [
                106.07737528689539,
                9.784254936655827
              ],
              [
                106.07734654487962,
                9.784699505698642
              ],
              [
                106.0774654692801,
                9.785207959747105
              ],
              [
                106.07765895970425,
                9.785631102333248
              ],
              [
                106.07827167775591,
                9.786161475197849
              ],
              [
                106.07891847947543,
                9.78687675802755
              ],
              [
                106.08092764251742,
                9.789111811697484
              ],
              [
                106.0807107918685,
                9.78923373470498
              ],
              [
                106.08063506423821,
                9.789102961964085
              ],
              [
                106.0793968783255,
                9.789990985521648
              ],
              [
                106.07965262123751,
                9.790349732282436
              ],
              [
                106.0790355852345,
                9.790709968157367
              ],
              [
                106.079304847538,
                9.791121904556002
              ],
              [
                106.07864757347558,
                9.791508814471216
              ],
              [
                106.07921202069801,
                9.792375713985177
              ],
              [
                106.07827555095963,
                9.792946558125845
              ],
              [
                106.07851825381482,
                9.79339555083271
              ],
              [
                106.07758175411861,
                9.793951413062743
              ],
              [
                106.07723841327466,
                9.79634668008629
              ]
            ]
          ]
        ]
      }
    }
  ]
}