{
  "type": "FeatureCollection",
  "name": "Ấp Ô Phèn",
  "crs": {
    "type": "name",
    "properties": {
      "name": "urn:ogc:def:crs:OGC:1.3:CRS84"
    }
  },
  "features": [
    {
      "type": "Feature",
      "properties": {
        "Layer": "2- O PHE",
        "PaperSpace": null,
        "SubClasses": "AcDbEntity:AcDbHatch",
        "Linetype": "Continuou",
        "EntityHandle": "641",
        "Text": "ANSI31",
        "ten": "Ấp Ô Phèn",
        "ma": "3005013",
        "loai": "Ấp",
        "dien_tich_ha": "650.378",
        "dan_so": "3036",
        "so_ho": "750",
        "sap_nhap_tu": [
          "Ấp Ô Phèn",
          "Ấp Xóm Giữa"
        ],
        "audio": "audio/Ấp Ô Phèn"
      },
      "geometry": {
        "type": "MultiPolygon",
        "coordinates": [
          [
            [
              [
                106.14378582037335,
                9.862825652091983
              ],
              [
                106.14347349348449,
                9.86325021144377
              ],
              [
                106.14501730387308,
                9.864623814592655
              ],
              [
                106.14590634470919,
                9.865113591475312
              ],
              [
                106.1458446041881,
                9.86517593662217
              ],
              [
                106.14371505073758,
                9.86652788272587
              ],
              [
                106.14240391783422,
                9.867811770862373
              ],
              [
                106.14205977374526,
                9.868242269301762
              ],
              [
                106.14190482117147,
                9.868544456686973
              ],
              [
                106.14169972258358,
                9.869448455825047
              ],
              [
                106.141460109804,
                9.870079726119544
              ],
              [
                106.14111528196109,
                9.870646155269531
              ],
              [
                106.14042789122483,
                9.871611384626748
              ],
              [
                106.14022169034939,
                9.871921687734329
              ],
              [
                106.1398165815553,
                9.873019182338933
              ],
              [
                106.13938844711745,
                9.874499943255174
              ],
              [
                106.1388952901379,
                9.875593953096399
              ],
              [
                106.13854794202766,
                9.876217305138008
              ],
              [
                106.13809216245527,
                9.876884090264454
              ],
              [
                106.13769517757898,
                9.877284658508865
              ],
              [
                106.13677446778362,
                9.878115387186892
              ],
              [
                106.13611052771184,
                9.878588773633947
              ],
              [
                106.13611275315185,
                9.878625946381954
              ],
              [
                106.13552177092122,
                9.878832418343944
              ],
              [
                106.1352626781485,
                9.87881527385678
              ],
              [
                106.13510270779197,
                9.878794149829513
              ],
              [
                106.13472439033478,
                9.878639286460896
              ],
              [
                106.13427488444934,
                9.878324847233314
              ],
              [
                106.13395542422651,
                9.878071392640507
              ],
              [
                106.13372537476758,
                9.877928906117148
              ],
              [
                106.13321628854078,
                9.877537358403124
              ],
              [
                106.13277353460222,
                9.877111536684618
              ],
              [
                106.13226075311343,
                9.876616954539998
              ],
              [
                106.13215764054776,
                9.876524707983078
              ],
              [
                106.13197040173759,
                9.876379896393056
              ],
              [
                106.13175195494088,
                9.876191748176035
              ],
              [
                106.13147468425178,
                9.875960975222693
              ],
              [
                106.13098458097447,
                9.875698106260156
              ],
              [
                106.13084567197984,
                9.875603217542045
              ],
              [
                106.13049172323628,
                9.875257795298898
              ],
              [
                106.13043794284691,
                9.875197618341812
              ],
              [
                106.13022817920525,
                9.875085332368165
              ],
              [
                106.12994788711197,
                9.874801616126826
              ],
              [
                106.12980599538884,
                9.87457486162766
              ],
              [
                106.12966249223868,
                9.874365737280105
              ],
              [
                106.12948286812737,
                9.874248166065538
              ],
              [
                106.1291950625491,
                9.874041810708896
              ],
              [
                106.12902955014631,
                9.87391442260328
              ],
              [
                106.12874719374736,
                9.873650667078179
              ],
              [
                106.12814870049719,
                9.873075463921577
              ],
              [
                106.12785178509715,
                9.872738832706672
              ],
              [
                106.12774939684223,
                9.872666362267069
              ],
              [
                106.1277690679764,
                9.872415690017554
              ],
              [
                106.12734198350266,
                9.872247657502749
              ],
              [
                106.12712259976553,
                9.872166352874624
              ],
              [
                106.12680065118117,
                9.872021735339256
              ],
              [
                106.12652253847162,
                9.87154540218715
              ],
              [
                106.1264776043352,
                9.871618147682897
              ],
              [
                106.12631038072772,
                9.871478893803971
              ],
              [
                106.12608368759084,
                9.871280067867463
              ],
              [
                106.12596685621303,
                9.871188627650357
              ],
              [
                106.12581491135492,
                9.871034029319043
              ],
              [
                106.12575135371829,
                9.870977101102753
              ],
              [
                106.12566922028907,
                9.870883702015579
              ],
              [
                106.1254604371302,
                9.870704101693397
              ],
              [
                106.12538734062484,
                9.870639549794364
              ],
              [
                106.12532531913705,
                9.870574049265562
              ],
              [
                106.1251940507441,
                9.870385005499914
              ],
              [
                106.12497848122399,
                9.87013404444128
              ],
              [
                106.12490562176802,
                9.870087050469197
              ],
              [
                106.12452307439193,
                9.869918120732235
              ],
              [
                106.12418584843051,
                9.869742889658909
              ],
              [
                106.12398982118714,
                9.869843869188907
              ],
              [
                106.12379848648264,
                9.868944827823562
              ],
              [
                106.12361426757758,
                9.868883281421663
              ],
              [
                106.12241749792364,
                9.86810142416048
              ],
              [
                106.12207768166131,
                9.86774529968847
              ],
              [
                106.12183218781747,
                9.86743211409176
              ],
              [
                106.11924354157748,
                9.86510544205561
              ],
              [
                106.11887167273052,
                9.864821918018764
              ],
              [
                106.11814803732031,
                9.864153349035073
              ],
              [
                106.11744821178995,
                9.863521555498696
              ],
              [
                106.11711104568373,
                9.863263575933644
              ],
              [
                106.1166482176156,
                9.86288554706497
              ],
              [
                106.11682544201801,
                9.86147623017989
              ],
              [
                106.11715249585863,
                9.860961828757596
              ],
              [
                106.11737534916382,
                9.860644669846106
              ],
              [
                106.11761508721511,
                9.860318340552075
              ],
              [
                106.11798061161032,
                9.859948601530425
              ],
              [
                106.11842303086887,
                9.859492752683533
              ],
              [
                106.11877595324279,
                9.859186728668854
              ],
              [
                106.11930424250998,
                9.858718052503225
              ],
              [
                106.11929806629111,
                9.858689782263296
              ],
              [
                106.11984012587946,
                9.858312019432809
              ],
              [
                106.11999683485392,
                9.858252715540793
              ],
              [
                106.12001392421766,
                9.857468919815506
              ],
              [
                106.11939542716544,
                9.858082572496931
              ],
              [
                106.11894627804561,
                9.858531806759414
              ],
              [
                106.1186954263606,
                9.858774822118502
              ],
              [
                106.11840466908299,
                9.858737472381591
              ],
              [
                106.1186224678818,
                9.858213421946155
              ],
              [
                106.12001649832412,
                9.856844429614219
              ],
              [
                106.12105061039726,
                9.85617231486428
              ],
              [
                106.1216176277303,
                9.855802800198697
              ],
              [
                106.1222240647194,
                9.855390484625238
              ],
              [
                106.12372081830439,
                9.854363867587137
              ],
              [
                106.12473890132104,
                9.853669663013955
              ],
              [
                106.12540228267493,
                9.85323500432277
              ],
              [
                106.12580972139573,
                9.852941125813569
              ],
              [
                106.1260590409843,
                9.852756523252543
              ],
              [
                106.12635361384557,
                9.85256756160225
              ],
              [
                106.12657422130869,
                9.852430801735231
              ],
              [
                106.12684503944716,
                9.852265198141668
              ],
              [
                106.12710090417889,
                9.852090210874564
              ],
              [
                106.12796864575463,
                9.851392632420719
              ],
              [
                106.12826222085921,
                9.85175492908868
              ],
              [
                106.1285415087004,
                9.851553615230818
              ],
              [
                106.12889673556634,
                9.851277732492411
              ],
              [
                106.12910652924269,
                9.851619469442372
              ],
              [
                106.12964133253031,
                9.851712412931322
              ],
              [
                106.12957194647556,
                9.852190653224602
              ],
              [
                106.12980208713127,
                9.852299715685684
              ],
              [
                106.12975478589145,
                9.852548804934127
              ],
              [
                106.12979358706853,
                9.852576941812087
              ],
              [
                106.13016284661126,
                9.852681314128478
              ],
              [
                106.13022321111798,
                9.852638073817351
              ],
              [
                106.1303024230888,
                9.852629698225414
              ],
              [
                106.1303121188344,
                9.852982476711553
              ],
              [
                106.13112693462158,
                9.85303936190345
              ],
              [
                106.13148647188605,
                9.853112738792998
              ],
              [
                106.13191843262794,
                9.853299359211723
              ],
              [
                106.13206935226665,
                9.853363451606185
              ],
              [
                106.132641668855,
                9.853524401799598
              ],
              [
                106.13380709513119,
                9.853705394747815
              ],
              [
                106.13420729659919,
                9.853779053954325
              ],
              [
                106.13519737028305,
                9.8539438256257
              ],
              [
                106.13546824008408,
                9.854028968808569
              ],
              [
                106.13570465778143,
                9.853329500627476
              ],
              [
                106.13592304780482,
                9.85258597492475
              ],
              [
                106.1360697278788,
                9.852150173354726
              ],
              [
                106.1361588671756,
                9.851851096029568
              ],
              [
                106.14140054304652,
                9.852030364702776
              ],
              [
                106.1414236883375,
                9.851364651819877
              ],
              [
                106.14117167454465,
                9.851355456203477
              ],
              [
                106.14077093278803,
                9.851331533958069
              ],
              [
                106.1403572605484,
                9.851315773031116
              ],
              [
                106.1400188985938,
                9.85130167712194
              ],
              [
                106.13970633997465,
                9.851288616951708
              ],
              [
                106.13923765350195,
                9.851252977351098
              ],
              [
                106.13894681331507,
                9.851250182566055
              ],
              [
                106.13878678237523,
                9.851236561604367
              ],
              [
                106.13864500292463,
                9.851231947458846
              ],
              [
                106.13830769682569,
                9.851197956709225
              ],
              [
                106.13802934022056,
                9.85119161137573
              ],
              [
                106.13936082144191,
                9.848650682448975
              ],
              [
                106.13990271281473,
                9.848724808492554
              ],
              [
                106.14012352923335,
                9.847831474019713
              ],
              [
                106.14025169753334,
                9.847775626363909
              ],
              [
                106.14072775340144,
                9.847853112629778
              ],
              [
                106.14124418631404,
                9.84797193122654
              ],
              [
                106.14156419984194,
                9.84807014611815
              ],
              [
                106.14187122137349,
                9.848191712232488
              ],
              [
                106.14221120288818,
                9.848337808018847
              ],
              [
                106.14240982261185,
                9.848458766009228
              ],
              [
                106.14253846829614,
                9.848555535618116
              ],
              [
                106.14262230399399,
                9.848487384684118
              ],
              [
                106.14278675496057,
                9.848288793564278
              ],
              [
                106.14317196731334,
                9.848204698354994
              ],
              [
                106.14365384634691,
                9.848087417352286
              ],
              [
                106.14394637503548,
                9.848210274950102
              ],
              [
                106.14410579881701,
                9.84828763663817
              ],
              [
                106.14484156945454,
                9.848758292631477
              ],
              [
                106.14522791502702,
                9.848197443335517
              ],
              [
                106.14551102190455,
                9.84834745702758
              ],
              [
                106.14474651942902,
                9.849457267728505
              ],
              [
                106.14498152726935,
                9.849629021966667
              ],
              [
                106.14576986269246,
                9.848484612180073
              ],
              [
                106.14609523729138,
                9.848675653971336
              ],
              [
                106.14584953034284,
                9.849058032421256
              ],
              [
                106.14616766379997,
                9.849233254394258
              ],
              [
                106.14651448993524,
                9.848709771719927
              ],
              [
                106.14678491845189,
                9.848852704851737
              ],
              [
                106.14661475760722,
                9.849133211123348
              ],
              [
                106.14860327132543,
                9.850094271107476
              ],
              [
                106.14887010782192,
                9.849944575336842
              ],
              [
                106.14898976992029,
                9.849828525032331
              ],
              [
                106.14920470074892,
                9.849430582760952
              ],
              [
                106.15253416259729,
                9.853672515409835
              ],
              [
                106.15223542740229,
                9.8538886308774
              ],
              [
                106.15243318984923,
                9.854162504895147
              ],
              [
                106.15275454579877,
                9.85394460618268
              ],
              [
                106.15285938272966,
                9.854097431072812
              ],
              [
                106.15298278922009,
                9.854292656759554
              ],
              [
                106.15238077732198,
                9.854690612481276
              ],
              [
                106.15266705174075,
                9.855107953178633
              ],
              [
                106.15296620270907,
                9.854904110455799
              ],
              [
                106.15309157335844,
                9.855048078054873
              ],
              [
                106.1530234689836,
                9.855206520748
              ],
              [
                106.15280554055958,
                9.855358570315861
              ],
              [
                106.15273545029889,
                9.85541548582008
              ],
              [
                106.1529038277053,
                9.855592371369863
              ],
              [
                106.15303513704879,
                9.855915501946223
              ],
              [
                106.15263719511157,
                9.856610783837118
              ],
              [
                106.15225651701508,
                9.857260512342297
              ],
              [
                106.15219869972664,
                9.857532057421965
              ],
              [
                106.15111839003693,
                9.85752267194813
              ],
              [
                106.15056712808233,
                9.857479419272066
              ],
              [
                106.14998280490818,
                9.857376820389378
              ],
              [
                106.14958098500341,
                9.857364210252161
              ],
              [
                106.14933816417758,
                9.857282384665833
              ],
              [
                106.14920876021671,
                9.857660034013284
              ],
              [
                106.14904982161717,
                9.857787009744797
              ],
              [
                106.14883158034125,
                9.858312915433968
              ],
              [
                106.1478691490475,
                9.858072455451834
              ],
              [
                106.14783341395726,
                9.858062931883184
              ],
              [
                106.14741761304033,
                9.85795352365805
              ],
              [
                106.14664635251964,
                9.857749762922603
              ],
              [
                106.14652735155099,
                9.857721137825914
              ],
              [
                106.14378582037335,
                9.862825652091983
              ]
            ]
          ]
        ]
      }
    }
  ]
}